ascii_name,description,genus_pk,id,iso_codes,jsondata,latitude,longitude,macroarea,markup_description,name,pk,samples_100,samples_200
kerek,,139,krq,krk,{},62.25,175.0,Eurasia,,Kerek,805,False,False
koryak,,139,kry,kpy,{},61.0,167.0,Eurasia,,Koryak,2062,False,False
alutor,,139,alu,alr,{},61.0,165.0,Eurasia,,Alutor,499,False,False
itelmen,,140,ite,itl,{},57.0,157.5,Eurasia,,Itelmen,2218,False,False
yukaghirtundra,,505,ytu,ykg,{},69.0,155.0,Eurasia,,Yukaghir (Tundra),2053,False,False
yukaghirkolyma,,505,yko,yux,{},65.75,150.833333333,Eurasia,,Yukaghir (Kolyma),2504,False,True
orok,,21,ork,oaa,{},49.5,143.5,Eurasia,,Orok,1616,False,False
ainu,,14,ain,ain,{},43.0,143.0,Eurasia,,Ainu,2486,False,True
nivkhsouthsakhalin,,324,nvs,niv,{},47.0,142.5,Eurasia,,Nivkh (South Sakhalin),890,False,False
nivkh,,324,niv,niv,{},53.3333333333,142.0,Eurasia,,Nivkh,2471,False,True
ulcha,,21,ulc,ulc,{},52.25,140.333333333,Eurasia,,Ulcha,240,False,False
japanese,,195,jpn,jpn,{},37.0,140.0,Eurasia,,Japanese,2542,True,True
negidal,,21,neg,neg,{},53.0,139.0,Eurasia,,Negidal,417,False,False
nihonshuwajapanesesignlanguage,,330,nih,jsl,{},36.0,139.0,Eurasia,,Nihon Shuwa (Japanese Sign Language),420,False,False
oroch,,21,orc,oac,{},50.3333333333,137.5,Eurasia,,Oroch,826,False,False
nanai,,21,nai,gld,{},49.5,137.0,Eurasia,,Nanai,1844,False,False
udihe,,21,udh,ude,{},47.6666666667,136.25,Eurasia,,Udihe,2184,False,False
jurchen,,21,jur,juc,{},47.0,130.0,Eurasia,,Jurchen,985,False,False
even,,21,evn,eve,{},68.0,130.0,Eurasia,,Even,2204,False,False
yakut,,19,ykt,sah,{},62.0,130.0,Eurasia,,Yakut,2287,False,False
southkoreansignlanguage,,330,ssl,kvk,{},37.0,128.0,Eurasia,,South Korean Sign Language,452,False,False
korean,,218,kor,kor,{},37.5,128.0,Eurasia,,Korean,2536,True,True
manchu,,21,mnc,mnc,{},49.5,127.5,Eurasia,,Manchu,2127,False,False
shuri,,195,ryu,ryu,{},26.5,127.5,Eurasia,,Shuri,2605,False,False
evenki,,21,eve,evn,{},56.0,125.0,Eurasia,,Evenki,2535,False,True
kirghizfuyu,,19,kfy,kir,{},47.75,124.416666667,Eurasia,,Kirghiz (Fu-Yu),136,False,False
dagur,,20,dgr,dta,{},48.0,124.0,Eurasia,,Dagur,2260,False,False
taiwanese,,375,taq,nan,{},25.0,121.5,Eurasia,,Taiwanese,223,False,False
solon,,21,sol,evn,{},48.0,120.0,Eurasia,,Solon,601,False,False
wuchangzhou,,375,wuc,wuu,{},31.6666666667,119.916666667,Eurasia,,Wu (Changzhou),1209,False,False
fuzhou,,375,fuz,cdo,{},26.0,119.5,Eurasia,,Fuzhou,1231,False,False
xiamen,,375,xia,nan,{},24.5,118.166666667,Eurasia,,Xiamen,1287,False,False
hokkien,,375,hok,nan,{},25.0,118.0,Eurasia,,Hokkien,685,False,False
chaozhou,,375,chz,nan,{},23.6666666667,116.666666667,Eurasia,,Chaozhou,41,False,False
hakka,,375,hak,hak,{},25.0,116.0,Eurasia,,Hakka,1832,False,False
chinesesignlanguage,,330,csl,csl,{},35.0,115.0,Eurasia,,Chinese Sign Language,305,False,False
hongkongsignlanguage,,330,hks,,{},22.5,114.0,Eurasia,,Hong Kong Sign Language,328,False,False
cantonese,,375,cnt,yue,{},23.0,113.0,Eurasia,,Cantonese,2366,False,False
mien,,169,mie,ium,{},25.0,111.0,Eurasia,,Mien,2080,False,False
lakkia,,405,lkk,lbc,{},24.0833333333,110.166666667,Eurasia,,Lakkia,1250,False,False
ketapang,,519,ktp,zlm,{},-1.86666666667,110.0,Eurasia,,Ketapang,134,False,False
mun,,169,mnu,mji,{},19.0,110.0,Eurasia,,Mun,179,False,False
mandarin,,375,mnd,cmn,{},34.0,110.0,Eurasia,,Mandarin,2543,True,True
tsat,,519,tst,huq,{},18.25,109.5,Eurasia,,Tsat,614,False,False
hlaibaoding,,406,lic,lic,{},19.0,109.5,Eurasia,,Hlai (Baoding),2627,False,False
ordos,,20,ord,mvf,{},39.0,109.0,Eurasia,,Ordos,1138,False,False
dong,,404,don,"doc, kmc",{},27.0,109.0,Eurasia,,Dong,1952,False,False
roglainorthern,,519,rgn,rog,{},12.1666666667,108.833333333,Eurasia,,Roglai (Northern),443,False,False
hre,,63,hre,hre,{},14.6666666667,108.666666667,Eurasia,,Hre,103,False,False
chru,,519,crh,cje,{},11.5,108.5,Eurasia,,Chru,46,False,False
mnongeastern,,63,mge,mng,{},12.6666666667,108.5,Eurasia,,Mnong (Eastern),403,False,False
rade,,519,rad,rad,{},13.0,108.5,Eurasia,,Rade,440,False,False
cua,,63,cua,cua,{},15.25,108.5,Eurasia,,Cua,869,False,False
chameastern,,519,cme,cjm,{},11.3333333333,108.5,Eurasia,,Cham (Eastern),1064,False,False
kamzhanglu,,404,kzh,doc,{},26.0,108.5,Eurasia,,Kam (Zhanglu),1242,False,False
bahnarpleibongmangyang,,63,bpb,bdq,{},13.8333333333,108.333333333,Eurasia,,Bahnar (Plei Bong-Mang Yang),280,False,False
zhuangnorthern,,404,zhn,zgb,{},24.0,108.0,Eurasia,,Zhuang (Northern),263,False,False
mulao,,404,mul,mlm,{},25.0,108.0,Eurasia,,Mulao,994,False,False
sre,,63,sre,kpm,{},11.5,108.0,Eurasia,,Sre,2106,False,False
buriat,,20,but,bxm,{},52.0,108.0,Eurasia,,Buriat,2148,False,False
sedang,,63,sed,sed,{},14.8333333333,108.0,Eurasia,,Sedang,2265,False,False
rengao,,63,rng,ren,{},14.5833333333,107.833333333,Eurasia,,Rengao,441,False,False
jeh,,63,jeh,jeh,{},15.1666666667,107.833333333,Eurasia,,Jeh,1355,False,False
katu,,72,ktu,"ktv, kuf",{},15.8333333333,107.583333333,Eurasia,,Katu,986,False,False
halang,,63,hln,hal,{},14.5,107.5,Eurasia,,Halang,538,False,False
sui,,404,sui,swi,{},26.0,107.5,Eurasia,,Sui,1277,False,False
santa,,20,sta,sce,{},31.5,107.5,Eurasia,,Santa,1526,False,False
brao,,63,bra,brb,{},14.1666666667,107.5,Eurasia,,Brao,1827,False,False
chrau,,63,chr,crw,{},10.75,107.5,Eurasia,,Chrau,2234,False,False
oi,,63,oi,oyb,{},14.8333333333,107.166666667,Eurasia,,Oi,193,False,False
pacoh,,72,pac,pac,{},16.4166666667,107.083333333,Eurasia,,Pacoh,1416,False,False
punu,,169,pnu,buh,{},24.0,107.0,Eurasia,,Bunu (Younuo),1418,False,False
sapuan,,63,sap,spu,{},15.1666666667,106.833333333,Eurasia,,Sapuan,1527,False,False
stieng,,63,sti,"sti, stt",{},11.8333333333,106.75,Eurasia,,Stieng,1740,False,False
vietnamese,,67,vie,vie,{},10.5,106.5,Eurasia,,Vietnamese,2522,True,True
nunginvietnam,,404,nun,nut,{},21.9166666667,106.416666667,Eurasia,,Nung (in Vietnam),2263,False,False
loven,,63,lov,lbo,{},15.0,106.333333333,Eurasia,,Loven,815,False,False
brueastern,,72,bru,bru,{},17.3333333333,106.0,Eurasia,,Bru (Eastern),38,False,False
gelao,,405,gla,gio,{},22.9166666667,105.5,Eurasia,,Gelao,1232,False,False
chamwestern,,519,chw,cja,{},12.0,105.5,Eurasia,,Cham (Western),1924,False,False
muong,,67,muo,mtq,{},20.5,105.083333333,Eurasia,,Muong,180,False,True
hmongdaw,,169,hmd,mww,{},26.0,105.0,Eurasia,,Hmong Daw,877,False,False
hmongnjua,,169,hmo,"cqd, hnj",{},28.0,105.0,Eurasia,,Hmong Njua,2445,True,True
khmer,,70,khm,khm,{},12.5,105.0,Eurasia,,Khmer,2447,False,True
khalkha,,20,kha,khk,{},47.0,105.0,Eurasia,,Khalkha,2528,True,True
lachi,,405,lch,lbt,{},22.6666666667,104.833333333,Eurasia,,Lachi,366,False,False
saek,,404,sae,skb,{},17.4166666667,104.75,Eurasia,,Saek,211,False,False
bruwestern,,72,brw,brv,{},16.75,104.75,Eurasia,,Bru (Western),1220,False,False
yay,,404,yay,pcc,{},22.4166666667,104.75,Eurasia,,Yay,1819,False,False
ksingmul,,69,ksi,puo,{},21.0833333333,104.0,Eurasia,,Ksingmul,363,False,False
yi,,380,yi,iii,{},24.0,104.0,Eurasia,,Yi,1151,False,False
laha,,405,lha,lha,{},21.5833333333,103.916666667,Eurasia,,Laha,145,False,False
salar,,19,slr,slr,{},35.0,103.0,Eurasia,,Salar,744,False,False
hani,,380,han,hni,{},23.0,103.0,Eurasia,,Hani,1115,False,False
lao,,404,lao,lao,{},18.0,103.0,Eurasia,,Lao,2098,False,False
semelai,,62,sml,sza,{},3.0,103.0,Eurasia,,Semelai,2406,False,True
baoan,,20,bao,peh,{},35.75,102.833333333,Eurasia,,Bao'an,1159,False,False
kunming,,375,kug,cmn,{},25.0,102.75,Eurasia,,Kunming,812,False,False
qiang,,387,qia,"cng, qxs",{},32.0,102.666666667,Eurasia,,Qiang,1619,False,False
malayulumuar,,519,mmu,zmi,{},2.66666666667,102.5,Eurasia,,Malay (Ulu Muar),161,False,False
malaccacreole,,331,mlc,mcm,{},2.2,102.25,Eurasia,,Malacca Creole,816,False,False
kasong,,64,ksn,,{},12.75,102.116666667,Eurasia,,Kasong,2608,False,False
malay,,519,mly,zsm,{},3.0,102.0,Eurasia,,Malay,711,False,False
jiarong,,390,jia,jya,{},31.5,102.0,Eurasia,,Jiarong,1396,False,False
mangghuer,,20,mgg,mjg,{},36.0,102.0,Eurasia,,Mangghuer,2206,False,False
khmu,,69,kmu,kjg,{},21.0,102.0,Eurasia,,Khmu',2397,False,True
gyarongcogtse,,390,gyc,jya,{},31.5,102.0,Eurasia,,Gyarong (Cogtse),2622,False,False
rgyalrongcaodeng,,390,rgc,jya,{},31.6666666667,101.75,Eurasia,,rGyalrong (Caodeng),2623,False,False
malaykualalumpur,,519,myk,zlm,{},3.16666666667,101.7,Eurasia,,Malay (Kuala Lumpur),160,False,False
semai,,62,smj,sea,{},4.33333333333,101.666666667,Eurasia,,Semai,446,False,False
nyahkurthapong,,65,nkt,cbn,{},15.6666666667,101.666666667,Eurasia,,Nyah Kur (Tha Pong),1259,False,False
mahmeri,,62,mhm,mhe,{},2.83333333333,101.5,Eurasia,,Mah Meri,159,False,False
jahai,,62,jah,jhi,{},5.75,101.5,Eurasia,,Jahai,339,False,False
temiar,,62,tmr,tea,{},5.0,101.5,Eurasia,,Temiar,1985,False,False
thaisignlanguage,,330,ths,tsq,{},15.0,101.0,Eurasia,,Thai Sign Language,466,False,False
jino,,380,jin,"jiu, jiy",{},22.0,101.0,Eurasia,,Jino,1073,False,False
pumi,,387,pum,"pmi, pmj",{},28.0,101.0,Eurasia,,Pumi,1525,False,False
mlabriminor,,69,mlm,mra,{},18.5,101.0,Eurasia,,Mlabri (Minor),1657,False,False
thai,,404,tha,tha,{},16.0,101.0,Eurasia,,Thai,2514,True,True
lu,,404,lu,khb,{},22.0,100.666666667,Eurasia,,Lü,1313,False,False
mon,,65,mon,mnw,{},14.8333333333,100.5,Eurasia,,Mon,1905,False,False
lalo,,380,lal,ywt,{},25.0,100.25,Eurasia,,Lalo,1872,False,False
amdo,,389,amd,adx,{},35.0,100.0,Eurasia,,Amdo,273,False,False
bisu,,380,biu,"bzi, lwm",{},19.75,100.0,Eurasia,,Bisu,1217,False,False
naxi,,384,nax,nbf,{},27.5,100.0,Eurasia,,Naxi,1520,False,False
bai,,381,bai,bca,{},26.0,100.0,Eurasia,,Bai,2055,False,False
khun,,404,khn,kkh,{},21.0,100.0,Eurasia,,Khün,2628,False,False
akha,,380,akh,ahk,{},21.8333333333,99.8333333333,Eurasia,,Akha,1712,False,False
sarygyughur,,19,syg,ybe,{},38.75,99.75,Eurasia,,Saryg Yughur,213,False,False
parauk,,69,puk,prk,{},23.25,99.5,Eurasia,,Parauk,1262,False,False
karenpwo,,378,kpw,"kjp, pwo",{},13.0,99.1666666667,Eurasia,,Karen (Pwo),1457,False,False
shirayughur,,20,shy,yuy,{},38.0,99.0,Eurasia,,Shira Yughur,836,False,False
nusu,,380,nus,nuf,{},26.75,99.0,Eurasia,,Nusu,998,False,False
phlong,,378,phl,pww,{},15.0,99.0,Eurasia,,Phlong,1263,False,False
anong,,385,ano,nun,{},27.3333333333,98.75,Eurasia,,Anong,781,False,False
khamdege,,389,khd,khg,{},31.8333333333,98.5833333333,Eurasia,,Kham (Dege),2618,False,False
achang,,380,acn,acn,{},25.0,98.5,Eurasia,,Achang,1289,False,False
maru,,380,mru,mhx,{},23.5,98.5,Eurasia,,Maru,1695,False,False
dulong,,385,dul,duu,{},28.0,98.3333333333,Eurasia,,Dulong,1166,False,False
uraklawoi,,519,url,urk,{},8.0,98.3333333333,Eurasia,,Urak Lawoi',1917,False,False
lahu,,380,lah,lhu,{},20.0,98.1666666667,Eurasia,,Lahu,2358,False,False
dolgan,,19,dol,dlg,{},71.25,98.0,Eurasia,,Dolgan,53,False,False
tofa,,19,tof,kim,{},53.75,98.0,Eurasia,,Tofa,470,False,False
shan,,404,sha,shn,{},22.0,98.0,Eurasia,,Shan,1480,False,False
lisu,,380,lis,lis,{},26.0,98.0,Eurasia,,Lisu,1692,False,False
amdothemchen,,389,amt,adx,{},38.0,98.0,Eurasia,,Amdo (Themchen),2614,False,False
rawang,,385,raw,raw,{},27.5,97.5,Eurasia,,Rawang,2008,False,False
kayahlieastern,,378,kyl,eky,{},19.0,97.5,Eurasia,,Kayah Li (Eastern),2376,False,True
karenbwe,,378,kbw,bwe,{},19.5,97.0,Eurasia,,Karen (Bwe),1802,False,False
karensgaw,,378,ksg,ksw,{},18.0,97.0,Eurasia,,Karen (Sgaw),2136,False,False
jingpho,,377,jng,kac,{},25.4166666667,97.0,Eurasia,,Jingpho,2154,False,False
palaung,,69,plg,"pce, rbb",{},22.6666666667,96.6666666667,Eurasia,,Palaung,1566,False,False
khamtibetannangchen,,389,knz,khg,{},32.5,96.5,Eurasia,,Kham (Tibetan) (Nangchen),2617,False,False
tutsa,,388,tvt,tvt,{},27.5,96.5,Eurasia,,Tutsa,2624,False,False
lungchang,,388,lun,nst,{},27.5,96.4166666667,Eurasia,,Lungchang,1186,False,False
jugli,,388,jug,nst,{},27.5,96.3333333333,Eurasia,,Jugli,1074,False,False
miju,,382,mij,mxj,{},29.0,96.0,Eurasia,,Miju,390,False,False
digaro,,376,dig,mhu,{},28.4166666667,96.0,Eurasia,,Digaro,1928,False,False
burmese,,380,brm,mya,{},21.0,96.0,Eurasia,,Burmese,2496,True,True
idu,,376,idu,clk,{},29.3333333333,95.8333333333,Eurasia,,Idu,1172,False,False
nocte,,388,noc,njb,{},27.0,95.5,Eurasia,,Nocte,1615,False,False
acehnese,,519,ace,ace,{},5.5,95.5,Eurasia,,Acehnese,2343,False,False
milang,,382,mil,adi,{},28.5,95.25,Eurasia,,Milang,818,False,False
tuvan,,19,tuv,tyv,{},52.0,95.0,Eurasia,,Tuvan,2292,False,False
mising,,382,msg,mrg,{},28.5,94.8333333333,Eurasia,,Mising,1807,False,False
bori,,382,boj,adi,{},28.3333333333,94.75,Eurasia,,Bori,1024,False,False
chang,,388,chg,nbc,{},26.3333333333,94.75,Eurasia,,Chang,1750,False,False
bokar,,382,boq,adi,{},28.5,94.6666666667,Eurasia,,Bokar,784,False,False
galo,,382,gal,adi,{},28.1666666667,94.6666666667,Eurasia,,Galo,1453,False,False
ao,,386,ao,njo,{},26.5833333333,94.6666666667,Eurasia,,Ao,2170,False,False
angami,,386,agm,"njm, nri",{},25.6666666667,94.5,Eurasia,,Angami,1823,False,False
nagatangkhul,,386,ngt,nmf,{},25.0,94.5,Eurasia,,Naga (Tangkhul),1877,False,False
sema,,386,sem,nsm,{},26.0,94.5,Eurasia,,Sema,1962,False,False
nagamao,,386,nma,nbi,{},25.5,94.3333333333,Eurasia,,Naga (Mao),1730,False,False
lotha,,386,lot,njh,{},26.5,94.25,Eurasia,,Lotha,1650,False,False
tarao,,386,tao,tro,{},24.25,94.1666666667,Eurasia,,Tarao,1486,False,False
kabui,,386,kbi,nkf,{},24.8333333333,94.0,Eurasia,,Kabui,123,False,False
nagapidgin,,331,npn,nag,{},25.6666666667,94.0,Eurasia,,Naga Pidgin,407,False,False
kott,,503,ktt,,{},57.0,94.0,Eurasia,,Kott,551,False,False
chinsiyin,,386,chs,csy,{},23.8333333333,94.0,Eurasia,,Chin (Siyin),1752,False,False
meithei,,386,mei,mni,{},24.75,94.0,Eurasia,,Meithei,2494,True,True
thadou,,386,thd,tcz,{},24.4166666667,93.9166666667,Eurasia,,Thadou,903,False,False
nicobarese,,68,nic,ncb,{},7.0,93.8333333333,Eurasia,,Nicobarese,189,False,False
mirihill,,382,mhl,mrg,{},27.9166666667,93.8333333333,Eurasia,,Miri (Hill):,2626,False,False
apatani,,382,apt,apt,{},27.5,93.75,Eurasia,,Apatani,1746,False,False
shompen,,373,smp,,{},7.0,93.75,Eurasia,,Shompen,2629,False,False
chintiddim,,386,cti,ctd,{},23.3333333333,93.6666666667,Eurasia,,Chin (Tiddim),2019,False,False
lai,,386,lai,cnh,{},22.6666666667,93.6666666667,Eurasia,,Lai,2176,False,False
nagazeme,,386,nze,nzm,{},25.1666666667,93.5,Eurasia,,Naga (Zeme),1471,False,False
mikir,,386,mik,mjw,{},26.3333333333,93.5,Eurasia,,Mikir,1840,False,False
nancowry,,68,nnc,ncb,{},8.05,93.5,Eurasia,,Nancowry,1908,False,False
nyishi,,382,nis,dap,{},27.5,93.5,Eurasia,,Nyishi,2006,False,False
sulung,,401,slg,suv,{},28.3333333333,93.25,Eurasia,,Sulung,838,False,False
paite,,386,pte,pck,{},24.0,93.1666666667,Eurasia,,Paite,197,False,False
chinmara,,386,cmr,mrh,{},23.0,93.1666666667,Eurasia,,Chin (Mara),1751,False,False
akacari,,163,akc,aci,{},13.5,93.0,Eurasia,,Aka-Cari,6,False,False
oirat,,20,oir,xal,{},37.5,93.0,Eurasia,,Oirat,999,False,False
dimasa,,383,dms,dis,{},25.5,93.0,Eurasia,,Dimasa,1449,False,False
hmar,,386,hma,hmr,{},24.1666666667,93.0,Eurasia,,Hmar,1640,False,False
assamese,,182,ass,asm,{},26.0,93.0,Eurasia,,Assamese,1715,False,False
nganasan,,463,nga,nio,{},71.0,93.0,Eurasia,,Nganasan,2048,False,False
nicobaresecar,,68,nca,caq,{},9.0,93.0,Eurasia,,Nicobarese (Car),2253,False,False
apucikwar,,163,apk,apq,{},12.1666666667,92.8333333333,Eurasia,,A-Pucikwar,1,False,False
mizo,,386,miz,lus,{},23.1666666667,92.8333333333,Eurasia,,Mizo,2139,False,False
akakede,,163,akk,akx,{},12.75,92.75,Eurasia,,Aka-Kede,7,False,False
ralte,,386,ral,ral,{},23.75,92.75,Eurasia,,Ralte,2625,False,False
greatandamanese,,163,gan,apq,{},12.0,92.6666666667,Eurasia,,Great Andamanese,1754,False,False
jarawainandamans,,399,jrw,anq,{},12.0,92.5833333333,Eurasia,,Jarawa (in Andamans),879,False,False
bugun,,374,bgn,,{},27.5,92.5833333333,Eurasia,,Bugun,1063,False,False
akabiada,,163,akb,abj,{},11.6666666667,92.5,Eurasia,,Aka-Biada,5,False,False
arakanesemarma,,380,akm,mhv,{},21.5,92.5,Eurasia,,Arakanese (Marma),14,False,False
sherdukpen,,374,shd,sdp,{},27.0,92.5,Eurasia,,Sherdukpen,447,False,False
kokborok,,383,kok,trp,{},24.3333333333,92.5,Eurasia,,Kokborok,1803,False,False
hyow,,386,hyo,csh,{},22.0833333333,92.4166666667,Eurasia,,Hyow,104,False,False
khumi,,386,khu,cnk,{},21.9166666667,92.4166666667,Eurasia,,Khumi,358,False,False
onge,,399,ong,oon,{},10.75,92.4166666667,Eurasia,,Onge,1522,False,False
bawm,,386,baw,bgr,{},22.5,92.25,Eurasia,,Bawm,2393,False,True
tshangla,,389,tgl,tsj,{},27.8333333333,92.1666666667,Eurasia,,Tshangla,1573,False,False
kamass,,463,kms,xas,{},52.0,92.0,Eurasia,,Kamass,1642,False,False
bodo,,383,bod,brx,{},26.8333333333,92.0,Eurasia,,Bodo,2072,False,False
khasi,,71,khs,kha,{},25.5,92.0,Eurasia,,Khasi,2446,False,True
bengalichittagong,,182,bec,ctg,{},22.3333333333,91.8333333333,Eurasia,,Bengali (Chittagong),285,False,False
tibetanmodernliterary,,389,tmo,bod,{},29.8333333333,91.5,Eurasia,,Tibetan (Modern Literary),1741,False,False
kachari,,383,kac,xac,{},26.5,91.0,Eurasia,,Kachari,1357,False,False
tibetanstandardspoken,,389,tib,bod,{},30.0,91.0,Eurasia,,Tibetan (Standard Spoken),2182,False,False
garo,,383,gar,grt,{},25.6666666667,90.5,Eurasia,,Garo,2403,False,True
deuri,,383,deu,der,{},26.0,90.25,Eurasia,,Deuri,1111,False,False
yugh,,503,yug,yuu,{},61.0,90.0,Eurasia,,Yugh,258,False,False
khakas,,19,khk,kjh,{},53.0,90.0,Eurasia,,Khakas,1399,False,False
bengali,,182,ben,ben,{},24.0,90.0,Eurasia,,Bengali,2147,False,False
chulym,,19,cly,clw,{},54.3333333333,89.6666666667,Eurasia,,Chulym,47,False,False
tibetanshigatse,,389,tis,bod,{},29.0,89.0,Eurasia,,Tibetan (Shigatse),758,False,False
shigatse,,389,shg,bod,{},29.0,89.0,Eurasia,,Shigatse,2615,False,False
sikkimese,,389,skk,sip,{},27.8333333333,88.5,Eurasia,,Sikkimese,1778,False,False
lepcha,,379,lep,lep,{},27.1666666667,88.5,Eurasia,,Lepcha,2371,False,True
shor,,19,shr,cjs,{},53.0,88.0,Eurasia,,Shor,598,False,False
dhimal,,511,dhm,dhi,{},26.6666666667,87.75,Eurasia,,Dhimal,50,False,False
limbu,,512,lim,lif,{},27.1666666667,87.75,Eurasia,,Limbu,2277,False,False
lhomi,,389,lho,lhm,{},27.6666666667,87.4166666667,Eurasia,,Lhomi,1185,False,False
malto,,150,mto,kmj,{},25.0,87.3333333333,Eurasia,,Malto,1086,False,False
athpare,,512,ath,aph,{},27.0,87.3333333333,Eurasia,,Athpare,1888,False,False
yamphu,,512,ybi,ybi,{},27.5833333333,87.3333333333,Eurasia,,Yamphu,2621,False,False
belhare,,512,bel,byw,{},26.9666666667,87.3,Eurasia,,Belhare,2037,False,False
kulung,,512,klg,kle,{},27.5,87.0,Eurasia,,Kulung,364,False,False
altaisouthern,,19,aso,alt,{},51.0,87.0,Eurasia,,Altai (Southern),498,False,False
santali,,66,stl,sat,{},24.5,87.0,Eurasia,,Santali,1570,False,False
ket,,503,ket,ket,{},64.0,87.0,Eurasia,,Ket,2458,False,True
sherpa,,389,she,xsr,{},27.75,86.8333333333,Eurasia,,Sherpa,1482,False,False
camling,,512,cml,rab,{},27.0,86.6666666667,Eurasia,,Camling,1386,False,False
khaling,,512,khg,klr,{},27.5,86.6666666667,Eurasia,,Khaling,1834,False,False
dumi,,512,dmi,dus,{},27.25,86.6666666667,Eurasia,,Dumi,1891,False,False
bhumij,,66,bhu,unr,{},21.3333333333,86.5,Eurasia,,Bhumij,1022,False,False
thulung,,512,thu,tdh,{},27.4166666667,86.5,Eurasia,,Thulung,1427,False,False
enets,,463,ene,"enf, enh",{},67.5,86.5,Eurasia,,Enets,1544,False,False
tibetandingri,,389,tdi,bod,{},28.5,86.5,Eurasia,,Tibetan (Dingri),2611,False,False
juang,,66,jun,jun,{},21.3333333333,86.0,Eurasia,,Juang,341,False,False
thangmi,,512,thn,thf,{},27.75,86.0,Eurasia,,Thangmi,1371,False,False
ho,,66,ho,hoc,{},22.0,86.0,Eurasia,,Ho,1598,False,False
newardolakha,,512,nwd,new,{},27.3333333333,86.0,Eurasia,,Newar (Dolakha),1770,False,False
hayu,,512,hay,vay,{},27.25,86.0,Eurasia,,Hayu,2022,False,False
maithili,,182,mai,mai,{},26.0,86.0,Eurasia,,Maithili,2100,False,False
wambule,,512,wme,wme,{},29.25,85.9166666667,Eurasia,,Wambule,2620,False,False
tamang eastern,,389,tam,"taj, tge",{},27.5,85.6666666667,Eurasia,,Tamang (Eastern),2179,False,False
magahi,,182,mgh,mag,{},23.5,85.5,Eurasia,,Magahi,934,False,False
kurukh,,150,kur,kru,{},22.8333333333,85.5,Eurasia,,Kurukh,1462,False,False
newarikathmandu,,512,new,new,{},27.6666666667,85.5,Eurasia,,Newari (Kathmandu),2158,False,False
kyirong,,389,kgy,kgy,{},28.4166666667,85.3333333333,Eurasia,,Kyirong,2613,False,False
oriya,,182,oya,ori,{},21.0,85.0,Eurasia,,Oriya,1564,False,False
nepali,,182,nep,nep,{},28.0,85.0,Eurasia,,Nepali,2290,False,False
chepang,,512,cpn,cdm,{},27.6666666667,84.75,Eurasia,,Chepang,1829,False,False
kusunda,,221,kus,kgg,{},28.0,84.6666666667,Eurasia,,Kusunda,930,False,False
mundari,,66,mun,unr,{},23.0,84.6666666667,Eurasia,,Mundari,2433,False,True
kharia,,66,khr,khr,{},22.5,84.3333333333,Eurasia,,Kharia,1602,False,False
sora,,66,sor,srb,{},20.0,84.3333333333,Eurasia,,Sora,1709,False,False
gurung,,389,gur,"ggn, gvr",{},28.3333333333,84.3333333333,Eurasia,,Gurung,1831,False,False
narphu,,389,nph,npa,{},28.6666666667,84.25,Eurasia,,Nar-Phu,1732,False,False
darai,,182,dar,dry,{},24.0,84.0,Eurasia,,Darai,1227,False,False
bhojpuri,,182,bho,bho,{},26.0,84.0,Eurasia,,Bhojpuri,1790,False,False
manange,,389,nmm,nmm,{},28.5833333333,84.0,Eurasia,,Manange,2609,False,False
baragaunle,,389,brl,loy,{},28.8333333333,83.8333333333,Eurasia,,Baragaunle,30,False,False
magarsyangja,,512,msy,mrd,{},28.0833333333,83.8333333333,Eurasia,,Magar (Syangja),157,False,False
pengo,,147,pen,peg,{},19.8333333333,83.8333333333,Eurasia,,Pengo,429,False,False
thakali,,389,thk,ths,{},29.0,83.75,Eurasia,,Thakali,1625,False,False
tangbe,,389,tbx,skj,{},28.9166666667,83.75,Eurasia,,Tangbe,2610,False,False
gutob,,66,gdb,gbj,{},19.0,83.6666666667,Eurasia,,Gutob,795,False,False
kuiinindia,,147,kui,kxu,{},20.0,83.5,Eurasia,,Kui (in India),1080,False,False
gadabakondekor,,148,gdk,gdb,{},18.75,83.5,Eurasia,,Gadaba (Kondekor),2552,False,False
chantyal,,389,chn,chx,{},28.5833333333,83.4166666667,Eurasia,,Chantyal,1828,False,False
oriyakotia,,182,oko,ort,{},18.3333333333,83.0,Eurasia,,Oriya (Kotia),426,False,False
konda,,147,kda,kfc,{},19.5,83.0,Eurasia,,Konda,549,False,False
magar,,512,mag,mgp,{},28.0,83.0,Eurasia,,Magar,1314,False,False
kalmyk,,20,kmk,xal,{},44.0,83.0,Eurasia,,Kalmyk,2043,False,False
kham,,512,kmh,kgj,{},28.5,82.75,Eurasia,,Kham,2060,False,False
raji,,547,rji,rji,{},28.0,82.75,Eurasia,,Raji,2607,False,False
kuvi,,147,kuv,kxv,{},18.75,82.6666666667,Eurasia,,Kuvi,1805,False,False
parjidravidian,,148,prd,pci,{},19.5,82.5,Eurasia,,Parji (Dravidian),831,False,False
remo,,66,rem,bfw,{},18.0,82.0,Eurasia,,Remo,2083,False,False
selkup,,463,skp,sel,{},65.0,82.0,Eurasia,,Selkup,2166,False,False
awadhi,,182,awd,awa,{},27.5,81.5,Eurasia,,Awadhi,638,False,False
koya,,147,koy,kff,{},17.5,81.3333333333,Eurasia,,Koya,2078,False,False
tibetandrokpa,,389,tdr,bod,{},32.25,81.25,Eurasia,,Tibetan (Drokpa),2612,False,False
vedda,,182,ved,ved,{},7.0,81.0,Eurasia,,Vedda,482,False,False
halbi,,182,hlb,hlb,{},21.0,81.0,Eurasia,,Halbi,683,False,False
gondi,,147,gon,"ggo, gno",{},19.0,81.0,Eurasia,,Gondi,1718,False,False
byansi,,389,bya,bee,{},30.1666666667,80.5,Eurasia,,Byansi,2056,False,False
sinhala,,182,snh,sin,{},7.0,80.5,Eurasia,,Sinhala,2193,False,False
chaudangsi,,389,chd,cdn,{},30.0,80.25,Eurasia,,Chaudangsi,976,False,False
indopakistanisignlanguageindiandialects,,330,ipi,ins,{},24.0,80.0,Eurasia,,Indo-Pakistani Sign Language (Indian dialects),333,False,False
kumauni,,182,kum,kfy,{},30.0,80.0,Eurasia,,Kumauni,1461,False,False
uyghur,,19,uyg,uig,{},40.0,80.0,Eurasia,,Uyghur,1782,False,False
darma,,389,drm,drd,{},30.0,79.75,Eurasia,,Darma,1542,False,False
marchha,,389,mrc,rnp,{},30.25,79.5833333333,Eurasia,,Marchha,936,False,False
rangpas,,389,rpa,bod,{},30.3333333333,79.3333333333,Eurasia,,Rang Pas,2616,False,False
jad,,389,jad,bod,{},30.8333333333,79.0,Eurasia,,Jad,927,False,False
telugu,,147,tel,tel,{},16.0,79.0,Eurasia,,Telugu,2286,False,False
nyamkad,,389,nyk,tpq,{},32.0,78.5,Eurasia,,Nyamkad,1195,False,False
korku,,66,kku,kfq,{},22.5,78.5,Eurasia,,Korku,1998,False,False
kolami,,148,kol,"kfb, nit",{},20.0,78.5,Eurasia,,Kolami,2061,False,False
tamil,,149,tml,tam,{},11.0,78.5,Eurasia,,Tamil,2356,False,False
zhangzhung,,389,zha,jna,{},31.5833333333,78.4166666667,Eurasia,,Zhang-Zhung,626,False,False
kalmykissykkul,,20,kiq,xal,{},42.4166666667,78.3333333333,Eurasia,,Kalmyk (Issyk-Kul),125,False,False
tatarbaraba,,19,ttb,tat,{},55.3333333333,78.3333333333,Eurasia,,Tatar (Baraba),225,False,False
tamilspoken,,149,tsp,tam,{},11.0,78.0,Eurasia,,Tamil (Spoken),224,False,False
spitian,,389,spi,bod,{},32.25,78.0,Eurasia,,Spitian,1094,False,False
kinnauri,,389,knn,kfk,{},31.5,78.0,Eurasia,,Kinnauri,1603,False,False
ladakhi,,389,lad,lbj,{},34.0,78.0,Eurasia,,Ladakhi,2370,False,True
nahali,,265,nah,nll,{},19.75,77.8333333333,Eurasia,,Nahali,1317,False,False
tod,,389,tod,sbu,{},32.4166666667,77.25,Eurasia,,Tod,234,False,False
kanashi,,389,xns,xns,{},32.0833333333,77.25,Eurasia,,Kanashi,2619,False,False
tinani,,389,tni,lbf,{},32.3333333333,77.1666666667,Eurasia,,Tinani,1147,False,False
kota,,149,kot,kfe,{},11.5,77.1666666667,Eurasia,,Kota,1401,False,False
bunan,,389,ghr,bfu,{},32.5,77.0,Eurasia,,Bunan,982,False,False
lamani,,182,lmn,lmn,{},17.0,77.0,Eurasia,,Lamani,1873,False,False
hindi,,182,hin,hin,{},25.0,77.0,Eurasia,,Hindi,2523,True,True
kodava,,149,kod,kfa,{},12.1666666667,76.8333333333,Eurasia,,Kodava,1120,False,False
badaga,,149,bdg,bfq,{},11.6666666667,76.75,Eurasia,,Badaga,23,False,False
toda,,149,tda,tcx,{},11.4166666667,76.75,Eurasia,,Toda,469,False,False
pattani,,389,ptt,lae,{},32.75,76.75,Eurasia,,Pattani,1700,False,False
bettakurumba,,149,bkb,xub,{},11.5,76.75,Eurasia,,Betta Kurumba,2606,False,False
brokskat,,182,bkt,bkk,{},35.3333333333,76.5,Eurasia,,Brokskat,1161,False,False
malayalam,,149,mym,mal,{},10.0,76.5,Eurasia,,Malayalam,2285,False,False
gojri,,182,goj,gju,{},32.75,76.25,Eurasia,,Gojri,533,False,False
aynu,,19,ayn,aib,{},39.5,76.0,Eurasia,,Aynu,22,False,False
nenetstundra,,463,ntu,yrk,{},70.0,76.0,Eurasia,,Nenets (Tundra),185,False,False
balti,,389,blt,bft,{},35.0,76.0,Eurasia,,Balti,1586,False,False
purki,,389,prk,prx,{},34.6666666667,76.0,Eurasia,,Purki,1702,False,False
marathi,,182,mhi,mar,{},19.0,76.0,Eurasia,,Marathi,2323,False,False
kashmiri,,182,kas,kas,{},34.0,76.0,Eurasia,,Kashmiri,2346,False,False
kannada,,149,knd,kan,{},14.0,76.0,Eurasia,,Kannada,2527,True,True
shekhawati,,182,skw,swv,{},28.0,75.5,Eurasia,,Shekhawati,1143,False,False
tulu,,149,tul,tcy,{},12.75,75.3333333333,Eurasia,,Tulu,1945,False,False
dogri,,182,dgi,"dgo, xnr",{},33.0,75.0,Eurasia,,Dogri,52,False,False
kirghiz,,19,kgz,kir,{},42.0,75.0,Eurasia,,Kirghiz,2113,False,False
burushaski,,113,bur,bsk,{},36.5,74.5,Eurasia,,Burushaski,2507,True,True
bagri,,182,bgi,bgq,{},29.5833333333,74.3333333333,Eurasia,,Bagri,24,False,False
dumaki,,182,dmk,dmk,{},36.1666666667,74.0,Eurasia,,Dumaki,1390,False,False
konkani,,182,kkn,knn,{},15.25,74.0,Eurasia,,Konkani,1459,False,False
shina,,182,sna,scl,{},36.0,74.0,Eurasia,,Shina,1663,False,False
panjabi,,182,pan,pan,{},31.0,74.0,Eurasia,,Panjabi,2330,False,False
mawchi,,182,mwc,mke,{},21.3333333333,73.6666666667,Eurasia,,Mawchi,717,False,False
kokni,,182,kkz,kex,{},20.75,73.5,Eurasia,,Kokni,704,False,False
dhivehi,,182,dhi,div,{},4.16666666667,73.5,Eurasia,,Dhivehi,1112,False,False
bhili,,182,bhi,bhb,{},22.0,73.0,Eurasia,,Bhili,658,False,False
kalami,,182,kal,gwc,{},35.5,72.5,Eurasia,,Kalami,1456,False,False
ishkashmi,,183,ish,sgl,{},37.0,72.0,Eurasia,,Ishkashmi,111,False,False
kalasha,,182,klh,kls,{},35.0,72.0,Eurasia,,Kalasha,344,False,False
khowar,,182,khw,khw,{},36.0,72.0,Eurasia,,Khowar,1178,False,False
torwali,,182,trw,trw,{},34.25,72.0,Eurasia,,Torwali,1376,False,False
wakhi,,183,wak,wbl,{},36.5,72.0,Eurasia,,Wakhi,1666,False,False
gujarati,,182,guj,guj,{},23.0,72.0,Eurasia,,Gujarati,1931,False,False
nenets,,463,nen,yrk,{},69.0,72.0,Eurasia,,Nenets,2425,False,True
rushan,,183,rsh,sgh,{},38.1666666667,71.5,Eurasia,,Rushan,209,False,False
vasavi,,182,vas,vas,{},24.5,71.5,Eurasia,,Vasavi,762,False,False
yazgulyam,,183,yaz,yah,{},38.5,71.5,Eurasia,,Yazgulyam,851,False,False
savi,,182,sav,sdg,{},35.0,71.5,Eurasia,,Savi,1422,False,False
waigali,,541,wgl,wbk,{},35.0,71.25,Eurasia,,Waigali,616,False,False
prasuni,,541,pra,prn,{},35.5,71.0,Eurasia,,Prasuni,1417,False,False
katiinafghanistan,,541,ktz,bsh,{},35.5,70.0,Eurasia,,Kati (in Afghanistan),353,False,False
kazakh,,19,kaz,kaz,{},50.0,70.0,Eurasia,,Kazakh,1037,False,False
tajik,,183,taj,tgk,{},38.6666666667,70.0,Eurasia,,Tajik,1984,False,False
ormuri,,183,orm,oru,{},32.5,69.75,Eurasia,,Ormuri,1325,False,False
yaghnobi,,183,ygn,yai,{},39.0,69.0,Eurasia,,Yaghnobi,251,False,False
sindhi,,182,sdh,snd,{},26.0,69.0,Eurasia,,Sindhi,1529,False,False
indopakistanisignlanguagekarachidialect,,330,ipk,pks,{},28.0,68.0,Eurasia,,Indo-Pakistani Sign Language (Karachi dialect),107,False,False
urdu,,182,urd,urd,{},25.0,67.0,Eurasia,,Urdu,1969,False,False
pashto,,183,psh,pst,{},33.0,67.0,Eurasia,,Pashto,2303,False,False
brahui,,150,brh,brh,{},28.5,67.0,Eurasia,,Brahui,2412,False,True
uzbeknorthern,,19,uzn,uzn,{},40.6666666667,66.5,Eurasia,,Uzbek (Northern),1492,False,False
dari,,183,dri,prs,{},35.0,66.0,Eurasia,,Dari,791,False,False
uzbek,,19,uzb,"uzn, uzs",{},39.0,66.0,Eurasia,,Uzbek,2282,False,False
khanty,,464,kty,kca,{},65.0,65.0,Eurasia,,Khanty,2284,False,False
baluchi,,183,blc,bgp,{},28.0,62.0,Eurasia,,Baluchi,1018,False,False
moghol,,20,mog,mhj,{},35.0,62.0,Eurasia,,Moghol,1875,False,False
mansi,,464,mns,mns,{},62.0,62.0,Eurasia,,Mansi,2268,False,False
karakalpak,,19,kkp,kaa,{},43.0,60.0,Eurasia,,Karakalpak,1870,False,False
turkiceastcentralxorasan,,19,tex,kmz,{},37.0,59.0,Eurasia,,Turkic (East-Central Xorasan),237,False,False
marihill,,466,mah,mrj,{},57.0,58.0,Eurasia,,Mari (Hill),937,False,False
turkmen,,19,tkm,tuk,{},40.0,58.0,Eurasia,,Turkmen,1627,False,False
bashkir,,19,bsk,bak,{},53.0,58.0,Eurasia,,Bashkir,2266,False,False
harsusi,,10,hrs,hss,{},20.0,56.5,Eurasia,,Harsusi,327,False,False
bathari,,10,bth,bhm,{},18.0,56.0,Eurasia,,Bathari,32,False,False
turkicwestxorasan,,19,twx,kmz,{},36.6666666667,56.0,Eurasia,,Turkic (West Xorasan),238,False,False
seychellescreole,,331,sey,crs,{},-4.75,55.5,Eurasia,,Seychelles Creole,748,False,False
jibbali,,10,jib,shv,{},17.5,55.0,Eurasia,,Jibbali,121,False,False
yazva,,468,yzv,kpv,{},65.0,55.0,Eurasia,,Yazva,772,False,False
komizyrian,,468,kzy,kpv,{},65.0,55.0,Eurasia,,Komi-Zyrian,2097,False,False
komipermyak,,468,kop,koi,{},59.5,54.5,Eurasia,,Komi-Permyak,1605,False,False
persian,,183,prs,pes,{},32.0,54.0,Eurasia,,Persian,2537,True,True
udmurt,,468,udm,udm,{},57.5,52.5,Eurasia,,Udmurt,2050,False,False
mazanderani,,183,mzn,mzn,{},36.5,52.0,Eurasia,,Mazanderani,885,False,False
armenianiranian,,189,arz,hye,{},32.6666666667,51.6666666667,Eurasia,,Armenian (Iranian),16,False,False
mehri,,10,meh,gdq,{},17.0,51.5,Eurasia,,Mehri,1960,False,False
arabicbahrain,,10,abh,abv,{},26.0,50.5,Eurasia,,Arabic (Bahrain),12,False,False
gilaki,,183,gil,glk,{},37.3333333333,50.0,Eurasia,,Gilaki,926,False,False
khalaj,,19,khl,klj,{},35.0,50.0,Eurasia,,Khalaj,1897,False,False
vafsi,,183,vaf,vaf,{},34.6666666667,49.9166666667,Eurasia,,Vafsi,1432,False,False
tatisouthern,,183,tts,tks,{},36.0,49.6666666667,Eurasia,,Tati (Southern),1146,False,False
tatar,,19,tvo,tat,{},56.0,49.5,Eurasia,,Tatar,2180,False,False
kabatei,,183,kbt,xkp,{},36.75,49.4166666667,Eurasia,,Kabatei,1118,False,False
tatarmishar,,19,tmi,tat,{},55.5,49.0,Eurasia,,Tatar (Mishar),226,False,False
talyshsouthern,,183,tls,tly,{},37.0,49.0,Eurasia,,Talysh (Southern),1144,False,False
arabicgulf,,10,arg,afb,{},26.0,49.0,Eurasia,,Arabic (Gulf),2258,False,False
tatmuslim,,183,tmu,ttt,{},41.25,48.75,Eurasia,,Tat (Muslim),462,False,False
talyshazerbaijan,,183,taz,tly,{},38.75,48.6666666667,Eurasia,,Talysh (Azerbaijan),456,False,False
luri,,183,lur,lrc,{},33.5,48.5,Eurasia,,Luri,153,False,False
mandaicmodern,,10,mma,mid,{},31.0,48.5,Eurasia,,Mandaic (Modern),164,False,False
yurttatar,,19,yta,nog,{},46.3333333333,48.5,Eurasia,,Yurt Tatar,261,False,False
azerbaijani,,19,aze,"azb, azj",{},40.5,48.5,Eurasia,,Azerbaijani,2144,False,False
budukh,,267,bdk,bdk,{},41.1666666667,48.4166666667,Eurasia,,Budukh,785,False,False
khinalug,,267,khi,kjj,{},41.1666666667,48.0833333333,Eurasia,,Khinalug,1078,False,False
kryz,,267,krz,kry,{},41.0833333333,48.0,Eurasia,,Kryz,142,False,False
koluri,,183,klr,shm,{},37.0,48.0,Eurasia,,Koluri,1121,False,False
udi,,267,udi,udi,{},41.0,48.0,Eurasia,,Udi,1576,False,False
marimeadow,,466,mme,mhr,{},57.0,48.0,Eurasia,,Mari (Meadow),2155,False,False
tabassaran,,267,tbs,tab,{},41.8333333333,47.9166666667,Eurasia,,Tabassaran,454,False,False
lezgian,,267,lez,lez,{},41.6666666667,47.8333333333,Eurasia,,Lezgian,2541,True,True
aghul,,267,agl,agx,{},41.75,47.6666666667,Eurasia,,Aghul,853,False,False
chuvash,,19,chv,chv,{},55.5,47.5,Eurasia,,Chuvash,2344,False,False
arabickuwaiti,,10,arj,afb,{},29.5,47.5,Eurasia,,Arabic (Kuwaiti),2604,False,False
dargwa,,266,drg,dar,{},42.25,47.4166666667,Eurasia,,Dargwa,1678,False,False
rutul,,267,rut,rut,{},41.5,47.4166666667,Eurasia,,Rutul,2009,False,False
kumyk,,19,kuq,kum,{},43.0,47.3333333333,Eurasia,,Kumyk,883,False,False
noghaykaragash,,19,nok,nog,{},47.5,47.25,Eurasia,,Noghay (Karagash),190,False,False
tsakhur,,267,tsa,tkr,{},41.6666666667,47.1666666667,Eurasia,,Tsakhur,1205,False,False
lak,,266,lak,lbe,{},42.1666666667,47.1666666667,Eurasia,,Lak,2331,False,True
neoaramaicpersianazerbaijan,,10,nap,trg,{},38.0,47.0,Eurasia,,Neo-Aramaic (Persian Azerbaijan),1318,False,False
azariiranian,,19,azi,azb,{},37.5,47.0,Eurasia,,Azari (Iranian),1497,False,False
archi,,267,arc,aqc,{},42.0,46.8333333333,Eurasia,,Archi,2274,False,False
avar,,269,ava,ava,{},42.5,46.5,Eurasia,,Avar,2275,False,False
akhvakh,,269,axv,akv,{},42.3333333333,46.3333333333,Eurasia,,Akhvakh,271,False,False
karata,,269,krt,kpt,{},42.5833333333,46.3333333333,Eurasia,,Karata,698,False,False
andi,,269,anx,ani,{},42.75,46.25,Eurasia,,Andi,11,False,False
tindi,,269,tnd,tin,{},42.3666666667,46.25,Eurasia,,Tindi,233,False,False
hunzib,,269,hzb,huz,{},42.1666666667,46.25,Eurasia,,Hunzib,2463,False,True
khvarshi,,269,khv,khv,{},42.25,46.1666666667,Eurasia,,Khvarshi,135,False,False
bezhta,,269,bez,kap,{},42.0833333333,46.1666666667,Eurasia,,Bezhta,783,False,False
bagvalal,,269,bgv,kva,{},42.5833333333,46.1666666667,Eurasia,,Bagvalal,1213,False,False
godoberi,,269,god,gdo,{},42.6666666667,46.0833333333,Eurasia,,Godoberi,1955,False,False
chamalal,,269,chm,cji,{},42.55,46.05,Eurasia,,Chamalal,520,False,False
hinukh,,269,hnk,gin,{},42.1666666667,46.0,Eurasia,,Hinuq,102,False,False
noghay,,19,nog,nog,{},44.0,46.0,Eurasia,,Noghay,1475,False,False
chechen,,268,chc,che,{},43.25,45.8333333333,Eurasia,,Chechen,2149,False,False
tsez,,269,tsz,ddo,{},42.25,45.75,Eurasia,,Tsez,1148,False,False
tatarnoghayalabugat,,19,tlb,nog,{},47.4166666667,45.6666666667,Eurasia,,Tatar-Noghay (Alabugat),227,False,False
hawrami,,183,hwr,hac,{},35.75,45.5,Eurasia,,Hawrami,875,False,False
mordvinerzya,,467,moe,myv,{},53.0,45.5,Eurasia,,Mordvin (Erzya),1978,False,False
tsovatush,,268,ttu,bbl,{},42.5,45.5,Eurasia,,Tsova-Tush,2167,False,False
ingush,,268,ing,inh,{},43.1666666667,45.0833333333,Eurasia,,Ingush,2464,False,True
armenianeastern,,189,arm,hye,{},40.0,45.0,Eurasia,,Armenian (Eastern),2391,False,True
russiansignlanguage,,330,rsl,rsl,{},56.0,44.0,Eurasia,,Russian Sign Language,445,False,False
arabicsanani,,10,ars,ayn,{},16.0,44.0,Eurasia,,Arabic (San'ani),636,False,False
mordvinmoksha,,467,mmo,mdf,{},54.0,44.0,Eurasia,,Mordvin (Moksha),888,False,False
arabiciraqi,,10,arq,acm,{},33.0,44.0,Eurasia,,Arabic (Iraqi),1714,False,False
ossetic,,183,oss,oss,{},43.0,44.0,Eurasia,,Ossetic,2192,False,False
kurdishcentral,,183,krd,kmr,{},36.0,44.0,Eurasia,,Kurdish (Central),2250,False,False
georgian,,205,geo,kat,{},42.0,44.0,Eurasia,,Georgian,2526,True,True
armenianwestern,,189,arw,hye,{},38.5,43.5,Eurasia,,Armenian (Western),2016,False,False
kabardian,,325,kab,kbd,{},43.5,43.5,Eurasia,,Kabardian,2219,False,False
neoaramaicamadiya,,10,naa,cld,{},37.0,43.0,Eurasia,,Neo-Aramaic (Amadiya),186,False,False
chaldeanmodern,,10,cld,cld,{},36.0,43.0,Eurasia,,Chaldean (Modern),1387,False,False
svan,,205,sva,sva,{},43.0,42.5,Eurasia,,Svan,753,False,False
mingrelian,,205,mgl,xmf,{},42.5,42.0,Eurasia,,Mingrelian,392,False,False
abaza,,325,abz,abq,{},44.0,42.0,Eurasia,,Abaza,908,False,False
kurmanji,,183,kji,kmr,{},38.0,42.0,Eurasia,,Kurmanji,1181,False,False
arabicmodernstandard,,10,ams,arb,{},25.0,42.0,Eurasia,,Arabic (Modern Standard),1584,False,False
karachaybalkar,,19,krc,krc,{},43.5,42.0,Eurasia,,Karachay-Balkar,2044,False,False
laz,,205,laz,lzz,{},41.5,41.5,Eurasia,,Laz,1252,False,False
neoaramaicassyrian,,10,nsy,aii,{},36.0,41.0,Eurasia,,Neo-Aramaic (Assyrian),570,False,False
zazaki,,183,zaz,diq,{},39.0,41.0,Eurasia,,Zazaki,1288,False,False
abkhaz,,325,abk,abk,{},43.0833333333,41.0,Eurasia,,Abkhaz,2534,True,True
adygheabzakh,,325,ady,ady,{},45.2333333333,40.5833333333,Eurasia,,Adyghe (Abzakh),1436,False,False
adyghetemirgoy,,325,adt,ady,{},45.2166666667,39.7,Eurasia,,Adyghe (Temirgoy),269,False,False
ubykh,,325,uby,uby,{},43.6666666667,39.6666666667,Eurasia,,Ubykh,1968,False,False
adygheshapsugh,,325,ash,ady,{},45.0,38.75,Eurasia,,Adyghe (Shapsugh),3,False,False
arabichijazi,,10,arh,acw,{},26.0,38.0,Eurasia,,Arabic (Hijazi),503,False,False
romaninorthrussian,,182,rnr,rml,{},60.0,38.0,Eurasia,,Romani (North Russian),587,False,False
arabicsyrian,,10,asy,apc,{},34.0,38.0,Eurasia,,Arabic (Syrian),2036,False,False
russian,,185,rus,rus,{},56.0,38.0,Eurasia,,Russian,2547,True,True
urum,,19,urm,uum,{},47.1166666667,37.55,Eurasia,,Urum,244,False,False
saamikildin,,462,ski,sjd,{},67.0,37.0,Eurasia,,Saami (Kildin),743,False,False
arabicnorthlevantinespoken,,10,anl,apc,{},33.75,36.0,Eurasia,,Arabic (North Levantine Spoken),505,False,False
arabiclebanese,,10,arl,apc,{},34.0,36.0,Eurasia,,Arabic (Lebanese),970,False,False
arabicbeirut,,10,abe,apc,{},33.9166666667,35.5,Eurasia,,Arabic (Beirut),633,False,False
arabicpalestinian,,10,apa,ajp,{},32.0,35.25,Eurasia,,Arabic (Palestinian),855,False,False
hebrewmodernashkenazic,,10,hba,heb,{},31.75,35.1666666667,Eurasia,,Hebrew (Modern Ashkenazic),1236,False,False
veps,,465,vep,vep,{},60.0,35.0,Eurasia,,Veps,246,False,False
domari,,182,dom,rmt,{},32.0,35.0,Eurasia,,Domari,1592,False,False
neoaramaicarbeljewish,,10,naj,aij,{},31.75,35.0,Eurasia,,Neo-Aramaic (Arbel Jewish),2004,False,False
turkish,,19,tur,tur,{},39.0,35.0,Eurasia,,Turkish,2549,True,True
israelisignlanguage,,330,iss,isr,{},32.0,34.8333333333,Eurasia,,Israeli Sign Language,336,False,False
hebrewmodern,,10,heb,heb,{},31.5,34.8333333333,Eurasia,,Hebrew (Modern),2511,True,True
arabicnegev,,10,arv,ajp,{},30.5,34.75,Eurasia,,Arabic (Negev),635,False,False
krymchak,,19,kym,uzn,{},45.0,34.25,Eurasia,,Krymchak,141,False,False
crimeantatar,,19,cri,crh,{},45.0,34.0833333333,Eurasia,,Crimean Tatar,1067,False,False
turkisaretdili,,330,tui,tsm,{},39.0,34.0,Eurasia,,Türk Isaret Dili,474,False,False
arabickormakiti,,10,ako,acy,{},35.25,33.5,Eurasia,,Arabic (Kormakiti),504,False,False
greekcypriot,,186,gcy,ell,{},34.75,33.0,Eurasia,,Greek (Cypriot),88,False,False
ladino,,184,lno,lad,{},40.0,33.0,Eurasia,,Ladino,708,False,False
ukrainian,,185,ukr,ukr,{},49.0,33.0,Eurasia,,Ukrainian,2160,False,False
karelian,,465,krl,krl,{},64.0,32.0,Eurasia,,Karelian,880,False,False
votic,,465,vot,vot,{},59.5,30.0,Eurasia,,Votic,1493,False,False
izhor,,465,izh,izh,{},59.0,29.0,Eurasia,,Izhor,119,False,False
moldavian,,184,mol,ron,{},47.0,29.0,Eurasia,,Moldavian,176,False,False
gagauz,,19,gag,gag,{},46.3333333333,28.6666666667,Eurasia,,Gagauz,925,False,False
yiddishbessarabian,,181,ydb,ydd,{},47.0,28.5,Eurasia,,Yiddish (Bessarabian),255,False,False
belorussian,,185,blr,bel,{},54.0,28.0,Eurasia,,Belorussian,1747,False,False
finnishsignlanguage,,330,fsl,fse,{},62.0,26.0,Eurasia,,Finnish Sign Language,318,False,False
estonian,,465,est,est,{},59.0,26.0,Eurasia,,Estonian,2235,False,False
yiddishlithuanian,,181,ylt,ydd,{},55.0,25.0,Eurasia,,Yiddish (Lithuanian),256,False,False
romanian,,184,rom,ron,{},46.0,25.0,Eurasia,,Romanian,2355,False,False
bulgarian,,185,bul,bul,{},42.5,25.0,Eurasia,,Bulgarian,2357,False,False
finnish,,465,fin,fin,{},62.0,25.0,Eurasia,,Finnish,2546,True,True
karaim,,19,krm,kdr,{},54.6666666667,24.9166666667,Eurasia,,Karaim,697,False,False
liv,,465,liv,liv,{},56.8333333333,24.0,Eurasia,,Liv,563,False,False
saaminorthern,,462,sno,sme,{},69.0,24.0,Eurasia,,Saami (Northern),2159,False,False
lithuanian,,188,lit,lit,{},55.0,24.0,Eurasia,,Lithuanian,2353,False,False
latvian,,188,lat,lav,{},57.0,24.0,Eurasia,,Latvian,2478,False,True
romaniajiavarvara,,182,rav,rmn,{},38.0,23.5833333333,Eurasia,,Romani (Ajia Varvara),741,False,False
yiddish,,181,ydd,"ydd, yih",{},52.0,23.0,Eurasia,,Yiddish,490,False,False
greeksignlanguage,,330,gsl,gss,{},38.5,22.0,Eurasia,,Greek Sign Language,320,False,False
greekmodern,,186,grk,ell,{},39.0,22.0,Eurasia,,Greek (Modern),2540,True,True
macedonian,,185,mcd,mkd,{},41.6666666667,21.75,Eurasia,,Macedonian,1838,False,False
romanilovari,,182,rlo,rmy,{},47.0,21.5,Eurasia,,Romani (Lovari),208,False,False
germantimisoara,,181,gti,deu,{},45.75,21.25,Eurasia,,German (Timisoara),78,False,False
romanibugurdzi,,182,rbu,rmn,{},42.6666666667,21.1666666667,Eurasia,,Romani (Bugurdzi),206,False,False
romanikalderash,,182,rka,rmy,{},45.0,21.0,Eurasia,,Romani (Kalderash),1268,False,False
slovak,,185,svk,slk,{},49.0,20.0,Eurasia,,Slovak,1201,False,False
polish,,185,pol,pol,{},52.0,20.0,Eurasia,,Polish,2368,False,False
albanian,,190,alb,"aln, als",{},41.0,20.0,Eurasia,,Albanian,2374,False,False
hungarian,,464,hun,hun,{},47.0,20.0,Eurasia,,Hungarian,2544,False,True
swedishvasterbotten,,181,swv,swe,{},64.25,19.75,Eurasia,,Swedish (Västerbotten),221,False,False
yiddishlodz,,181,ydl,ydd,{},51.75,19.4166666667,Eurasia,,Yiddish (Lodz),257,False,False
serbiancroatian,,185,scr,"bos, hrv, srp",{},44.0,19.0,Eurasia,,Serbian-Croatian,2272,False,False
bosnian,,185,bos,bos,{},43.0,18.0,Eurasia,,Bosnian,37,False,False
kashubian,,185,ksu,csb,{},54.0,18.0,Eurasia,,Kashubian,127,False,False
saamicentralsouth,,462,scs,sma,{},64.6666666667,16.75,Eurasia,,Saami (Central-South),1271,False,False
romaniburgenland,,182,rbg,rmo,{},47.5,16.5,Eurasia,,Romani (Burgenland),207,False,False
germanviennese,,181,gvi,bar,{},48.1666666667,16.3333333333,Eurasia,,German (Viennese),80,False,False
slovincian,,185,svc,csb,{},54.0,16.0,Eurasia,,Slovincian,600,False,False
svenskateckenspraket,,330,svt,swl,{},59.0,15.0,Eurasia,,Svenska Teckenspråket,453,False,False
slovene,,185,slo,slv,{},46.0,15.0,Eurasia,,Slovene,1983,False,False
czech,,185,cze,ces,{},50.0,15.0,Eurasia,,Czech,2215,False,False
swedish,,181,swe,swe,{},60.0,15.0,Eurasia,,Swedish,2341,False,False
sorbianupper,,185,sou,hsb,{},51.8333333333,14.5,Eurasia,,Sorbian (Upper),900,False,False
maltese,,10,mlt,mlt,{},35.9166666667,14.4166666667,Eurasia,,Maltese,2138,False,False
sorbianlower,,185,srl,dsb,{},51.75,14.3333333333,Eurasia,,Sorbian (Lower),451,False,False
italiannapolitanian,,184,itn,nap,{},40.9166666667,14.25,Eurasia,,Italian (Napolitanian),116,False,False
germanupperaustrian,,181,gau,bar,{},47.0,14.0,Eurasia,,German (Upper Austrian),79,False,False
sorbian,,185,srb,"dsb, hsb",{},51.5,14.0,Eurasia,,Sorbian,1370,False,False
germanberlin,,181,gbl,deu,{},52.5,13.3333333333,Eurasia,,German (Berlin),70,False,False
linguaitalianadeisegni,,330,lii,ise,{},42.0,13.0,Eurasia,,Lingua Italiana dei Segni,377,False,False
polabian,,185,plb,pox,{},51.0,12.8333333333,Eurasia,,Polabian,583,False,False
italian,,184,ita,ita,{},43.0,12.0,Eurasia,,Italian,2351,False,False
ladin,,184,ldn,lld,{},46.5833333333,11.9166666667,Eurasia,,Ladin,367,False,False
germanbavarian,,181,gba,bar,{},49.0,11.5,Eurasia,,German (Bavarian),69,False,False
germanmansfeldisch,,181,gma,deu,{},51.5833333333,11.5,Eurasia,,German (Mansfeldisch),73,False,False
italianbologna,,184,itb,eml,{},44.5,11.3333333333,Eurasia,,Italian (Bologna),113,False,False
italianfiorentino,,184,ifi,ita,{},43.75,11.25,Eurasia,,Italian (Fiorentino),114,False,False
germanthuringian,,181,gth,deu,{},51.0,11.0,Eurasia,,German (Thuringian),77,False,False
deutschegebardensprache,,330,dge,gsg,{},52.0,11.0,Eurasia,,Deutsche Gebärdensprache,525,False,False
lowgerman,,181,lge,nds,{},53.0,10.0,Eurasia,,Low German,149,False,False
danish,,181,dsh,dan,{},56.0,10.0,Eurasia,,Danish,2216,False,False
german,,181,ger,deu,{},52.0,10.0,Eurasia,,German,2539,True,True
romanschsurmeiran,,184,rsm,roh,{},46.5833333333,9.75,Eurasia,,Romansch (Surmeiran),589,False,False
germanhannover,,181,gha,deu,{},52.4166666667,9.66666666667,Eurasia,,German (Hannover),72,False,False
romanschscharans,,184,rsc,roh,{},46.75,9.5,Eurasia,,Romansch (Scharans),1269,False,False
germanappenzell,,181,gpz,gsw,{},47.3333333333,9.33333333333,Eurasia,,German (Appenzell),68,False,False
germanostschweiz,,181,gos,gsw,{},47.4166666667,9.25,Eurasia,,German (Ostschweiz),74,False,False
germanthurgau,,181,gtg,gsw,{},47.5833333333,9.16666666667,Eurasia,,German (Thurgau),76,False,False
romansch,,184,rmc,roh,{},46.6666666667,9.16666666667,Eurasia,,Romansch,588,False,False
frisiannorth,,181,fno,frr,{},54.5,9.0,Eurasia,,Frisian (North),62,False,False
norsktegnsprak,,330,nte,nsl,{},61.0,9.0,Eurasia,,Norsk Tegnspråk,191,False,False
sardinian,,184,srd,sro,{},40.0,9.0,Eurasia,,Sardinian,1707,False,False
italiangenoa,,184,itg,lij,{},44.4166666667,8.95,Eurasia,,Italian (Genoa),115,False,False
romanschsursilvan,,184,rsu,roh,{},46.6666666667,8.83333333333,Eurasia,,Romansch (Sursilvan),1327,False,False
germanzurich,,181,gzu,gsw,{},47.4166666667,8.5,Eurasia,,German (Zurich),83,False,False
norwegian,,181,nor,nob,{},61.0,8.0,Eurasia,,Norwegian,2295,False,False
italianturinese,,184,itu,pms,{},45.0,7.66666666667,Eurasia,,Italian (Turinese),117,False,False
alsatian,,181,alt,gsw,{},48.5,7.5,Eurasia,,Alsatian,10,False,False
frisianeastern,,181,fea,frs,{},53.5833333333,7.5,Eurasia,,Frisian (Eastern),61,False,False
germanwestphalian,,181,gwe,wep,{},52.0,7.5,Eurasia,,German (Westphalian),82,False,False
germanbern,,181,gbe,gsw,{},47.0,7.41666666667,Eurasia,,German (Bern),71,False,False
germanripuarian,,181,grp,ksh,{},51.0,7.0,Eurasia,,German (Ripuarian),75,False,False
luxemburgeois,,181,lux,ltz,{},49.8333333333,6.16666666667,Eurasia,,Luxemburgeois,154,False,False
provencal,,184,pro,oci,{},44.0,6.0,Eurasia,,Provençal,203,False,False
frisianwestern,,181,frw,fry,{},53.0,6.0,Eurasia,,Frisian (Western),528,False,False
dutch,,181,dut,nld,{},52.5,6.0,Eurasia,,Dutch,2345,False,False
dutchlimburg,,181,dli,nld,{},51.0,5.5,Eurasia,,Dutch (Limburg),55,False,False
nederlandsegebarentaal,,330,ned,dse,{},52.25,5.5,Eurasia,,Nederlandse Gebarentaal,416,False,False
frisian,,181,fri,frs,{},53.0,5.0,Eurasia,,Frisian,1680,False,False
dutchbrabantic,,181,dbr,nld,{},50.75,4.5,Eurasia,,Dutch (Brabantic),54,False,False
vlaamsegebarentaal,,330,vla,bvs,{},51.0,4.0,Eurasia,,Vlaamse Gebarentaal,483,False,False
dutchzeeuws,,181,duz,zea,{},51.5,3.75,Eurasia,,Dutch (Zeeuws),56,False,False
languedessignesfrancaise,,330,lsf,fsl,{},47.0,3.0,Eurasia,,Langue des Signes Française,368,False,False
occitan,,184,occ,oci,{},44.0,2.0,Eurasia,,Occitan,892,False,False
catalan,,184,ctl,cat,{},41.75,2.0,Eurasia,,Catalan,2226,False,False
french,,184,fre,fra,{},48.0,2.0,Eurasia,,French,2550,True,True
english,,181,eng,eng,{},52.0,0.0,Eurasia,,English,2551,True,True
britishsignlanguage,,330,bsl,bfi,{},52.0,-1.0,Eurasia,,British Sign Language,291,False,False
basquesouletin,,107,bso,eus,{},43.5,-1.5,Eurasia,,Basque (Souletin),655,False,False
basquebasaburuaandimoz,,107,bqi,eus,{},43.0,-1.66666666667,Eurasia,,Basque (Basaburua and Imoz),646,False,False
basqueroncalese,,107,bqr,eus,{},43.0,-2.0,Eurasia,,Basque (Roncalese),653,False,False
basquesakana,,107,bqs,eus,{},42.5,-2.0,Eurasia,,Basque (Sakana),654,False,False
basquelekeitio,,107,bql,eus,{},43.0,-2.5,Eurasia,,Basque (Lekeitio),650,False,False
basquenorthernhighnavarrese,,107,bqn,eus,{},43.3333333333,-2.5,Eurasia,,Basque (Northern High Navarrese),651,False,False
lenguadesenasespanola,,330,lse,ssp,{},40.0,-3.0,Eurasia,,Lengua de Señas Española,373,False,False
basquegernica,,107,bqg,eus,{},43.3333333333,-3.0,Eurasia,,Basque (Gernica),648,False,False
basquehondarribia,,107,bqh,eus,{},42.5,-3.0,Eurasia,,Basque (Hondarribia),649,False,False
basquezeberio,,107,bqz,eus,{},42.0,-3.0,Eurasia,,Basque (Zeberio),656,False,False
breton,,187,bre,bre,{},48.0,-3.0,Eurasia,,Breton,2299,False,False
welsh,,187,wel,cym,{},52.0,-3.0,Eurasia,,Welsh,2317,False,False
basque,,107,bsq,eus,{},43.0,-3.0,Eurasia,,Basque,2533,True,True
basqueonati,,107,bqo,eus,{},42.5,-3.5,Eurasia,,Basque (Oñati),652,False,False
welshcolloquial,,187,wec,cym,{},52.75,-3.5833,Eurasia,,Welsh (Colloquial),2576,False,False
basquebidasoavalley,,107,bqb,eus,{},43.0,-3.83333333333,Eurasia,,Basque (Bidasoa Valley),647,False,False
romaniwelsh,,182,rwe,rmw,{},52.0,-4.0,Eurasia,,Romani (Welsh),1704,False,False
gaelicscots,,187,gae,gla,{},57.0,-4.0,Eurasia,,Gaelic (Scots),2236,False,False
spanish,,184,spa,spa,{},40.0,-4.0,Eurasia,,Spanish,2548,True,True
manx,,187,mnx,glv,{},54.1666666667,-4.5,Eurasia,,Manx,817,False,False
cornish,,187,crn,cor,{},50.3333333333,-5.0,Eurasia,,Cornish,1992,False,False
asturian,,184,ast,ast,{},43.25,-6.0,Eurasia,,Asturian,18,False,False
faroese,,181,far,fao,{},62.0,-7.0,Eurasia,,Faroese,1113,False,False
irishsignlanguage,,330,irs,isg,{},53.5,-7.5,Eurasia,,Irish Sign Language,335,False,False
linguagestualportuguesa,,330,lgp,psr,{},40.0,-8.0,Eurasia,,Língua Gestual Portuguesa,147,False,False
galician,,184,glc,glg,{},43.0,-8.0,Eurasia,,Galician,531,False,False
irishdonegal,,187,ird,gle,{},55.0,-8.0,Eurasia,,Irish (Donegal),1237,False,False
portuguese,,184,por,por,{},39.0,-8.0,Eurasia,,Portuguese,2231,False,False
irish,,187,iri,gle,{},53.0,-8.0,Eurasia,,Irish,2420,False,True
irishmunster,,187,irm,gle,{},52.5,-9.0,Eurasia,,Irish (Munster),541,False,False
spanishcanaryislands,,184,spc,spa,{},28.0,-15.5833333333,Eurasia,,Spanish (Canary Islands),220,False,False
icelandic,,181,ice,isl,{},65.0,-17.0,Eurasia,,Icelandic,2329,False,False
icelandicsignlanguage,,330,ics,icl,{},65.0,-18.0,Eurasia,,Icelandic Sign Language,330,False,False
greenlandiceast,,158,gre,kal,{},65.0,-40.0,Eurasia,,Greenlandic (East),534,False,False
greenlandicsouth,,158,gso,kal,{},60.0,-44.0,Eurasia,,Greenlandic (South),321,False,False
greenlandicwest,,158,grw,kal,{},64.0,-51.0,Eurasia,,Greenlandic (West),2519,True,True
yupikstlawrenceisland,,158,ysl,ess,{},63.5,-170.5,Eurasia,,Yupik (St. Lawrence Island),777,False,False
yupiknaukan,,158,yna,ynk,{},66.0,-172.0,Eurasia,,Yupik (Naukan),624,False,False
yupiksiberian,,158,yus,ess,{},65.0,-173.0,Eurasia,,Yupik (Siberian),2013,False,False
chukchi,,139,chk,ckt,{},67.0,-173.0,Eurasia,,Chukchi,2509,True,True
yupiksirenik,,158,ysi,ysr,{},64.5,-174.0,Eurasia,,Yupik (Sirenik),625,False,False
