ascii_name,description,genus_pk,id,iso_codes,jsondata,latitude,longitude,macroarea,markup_description,name,pk,samples_100,samples_200
kipea,,202,kri,kzw,{},-10.0,-37.0,South America,,Kipea,1871,False,False
fulnio,,237,ful,fun,{},-8.0,-37.5,South America,,Fulniô,1893,False,False
maxakali,,239,max,mbl,{},-18.0,-40.0,South America,,Maxakalí,1363,False,False
krenak,,240,kqq,kqq,{},-15.5,-41.0,South America,,Krenak,2670,False,False
canela,,238,cnl,ram,{},-7.0,-45.0,South America,,Canela,295,False,False
urubusignlanguage,,330,usl,uks,{},-2.33333333333,-46.0,South America,,Urubú Sign Language,243,False,False
guajajara,,457,gjj,gub,{},-5.0,-46.0,South America,,Guajajara,1797,False,False
canelakraho,,238,ckr,"ram, xra",{},-6.0,-46.0,South America,,Canela-Krahô,2524,True,True
urubukaapor,,457,urk,urb,{},-2.33333333333,-46.5,South America,,Urubú-Kaapor,2426,False,True
linguadesinaisbrasileira,,330,lsb,bzs,{},-15.0,-48.0,South America,,Língua de Sinais Brasileira,376,False,False
kraho,,238,krh,xra,{},-8.0,-48.0,South America,,Krahô,1123,False,False
apinaye,,238,api,apn,{},-5.5,-48.0,South America,,Apinayé,2071,False,False
xerente,,238,xer,xer,{},-10.0,-48.1666666667,South America,,Xerénte,619,False,False
asurini,,457,asu,asu,{},-3.5,-49.5,South America,,Asuriní,857,False,False
xokleng,,238,xok,xok,{},-24.5,-50.0,South America,,Xokleng,1338,False,False
karaja,,243,jva,kpj,{},-10.0,-50.3333333333,South America,,Karajá,1722,False,False
palikur,,533,plk,plu,{},3.0,-51.0,South America,,Palikur,2028,False,False
kayapo,,238,kyp,txu,{},-9.0,-52.0,South America,,Kayapó,1177,False,False
wayampi,,457,way,oym,{},1.0,-52.0,South America,,Wayampi,1855,False,False
kaingang,,238,kng,kgp,{},-26.0,-52.0,South America,,Kaingang,2042,False,False
emerillon,,457,eme,eme,{},3.16666666667,-52.4166666667,South America,,Émérillon,2664,False,False
xavante,,238,xav,xav,{},-15.0,-52.5,South America,,Xavánte,1337,False,False
kamaiura,,457,kma,kay,{},-12.0833333333,-52.5833333333,South America,,Kamaiurá,2024,False,False
guianesefrenchcreole,,331,gfr,gcr,{},5.0,-53.0,South America,,Guianese French Creole,92,False,False
waura,,532,wur,wau,{},-13.0,-53.0,South America,,Waurá,765,False,False
kuikuro,,119,kkq,kui,{},-12.4166666667,-53.0833333333,South America,,Kuikúro,2668,False,False
trumai,,451,tru,tpy,{},-11.9166666667,-53.5833333333,South America,,Trumai,2423,False,True
apalai,,119,apl,apy,{},0.0,-54.0,South America,,Apalaí,2171,False,False
wayana,,119,wyn,way,{},3.25,-54.1666666667,South America,,Wayana,618,False,False
juruna,,457,jrn,jur,{},-5.0,-54.5,South America,,Juruna,122,False,False
ndyuka,,331,ndy,djk,{},4.5,-54.5,South America,,Ndyuka,2678,False,True
kaiwa,,457,kaw,kgk,{},-23.0,-55.0,South America,,Kaiwá,545,False,False
bakairi,,119,bki,bkq,{},-14.0,-55.0,South America,,Bakairí,1214,False,False
panara,,238,pnx,kre,{},-10.0,-55.0,South America,,Panará,2669,False,False
ache,,457,ach,guq,{},-25.25,-55.1666666667,South America,,Aché,1153,False,False
arawak,,550,ara,arw,{},5.5,-55.1666666667,South America,,Arawak,2200,False,False
sranan,,331,sra,srn,{},5.83333333333,-55.3333333333,South America,,Sranan,1008,False,False
saramaccan,,331,srm,srm,{},4.5,-55.5,South America,,Saramaccan,1199,False,False
kayabi,,457,kyz,kyz,{},-11.0,-55.5,South America,,Kayabí,2665,False,False
tiriyo,,119,tir,tri,{},3.25,-55.75,South America,,Tiriyo,1850,False,False
terena,,535,trn,ter,{},-20.0,-56.0,South America,,Terêna,608,False,False
carib,,119,car,car,{},5.5,-56.0,South America,,Carib,2378,False,True
guarani,,457,gua,gug,{},-26.0,-56.0,South America,,Guaraní,2492,True,True
parecis,,532,prc,pab,{},-14.0,-57.0,South America,,Parecis,582,False,False
kadiweu,,542,kdw,kbc,{},-20.0,-57.0,South America,,Kadiwéu,1175,False,False
bororo,,242,brr,bor,{},-16.0,-57.0,South America,,Bororo,2247,False,False
maca,,249,mca,mca,{},-25.0,-57.5,South America,,Maca,155,False,False
rikbaktsa,,244,rik,rkb,{},-11.8333333333,-57.5,South America,,Rikbaktsa,1005,False,False
guana,,248,gna,gva,{},-22.0,-58.0,South America,,Guana,322,False,False
berbicedutchcreole,,331,bdc,brc,{},5.33333333333,-58.0,South America,,Berbice Dutch Creole,782,False,False
munduruku,,459,muu,myu,{},-7.0,-58.0,South America,,Mundurukú,1192,False,False
guato,,241,gto,gta,{},-17.0,-58.0,South America,,Guató,1234,False,False
iranxe,,529,irx,irn,{},-13.0,-58.0,South America,,Iranxe,1683,False,False
lengua,,248,lng,leg,{},-22.5,-59.0,South America,,Lengua,932,False,False
waiwai,,119,wai,waw,{},1.0,-59.0,South America,,Wai Wai,1284,False,False
toba,,543,tob,tob,{},-26.5,-59.0,South America,,Toba,1626,False,False
hixkaryana,,119,hix,hix,{},-1.0,-59.0,South America,,Hixkaryana,2520,True,True
ayoreo,,508,ayr,ayo,{},-20.25,-59.25,South America,,Ayoreo,1017,False,False
akawaio,,119,akw,ake,{},6.0,-59.5,South America,,Akawaio,1291,False,False
nambikuara,,270,nmb,nab,{},-14.0,-59.5,South America,,Nambikuára (Southern),2229,False,False
chiquitano,,133,cqt,cax,{},-17.5,-60.0,South America,,Chiquitano,1222,False,False
wapishana,,551,wps,wap,{},2.66666666667,-60.0,South America,,Wapishana,1286,False,False
pilaga,,543,pga,plg,{},-25.0,-60.0,South America,,Pilagá,1813,False,False
macushi,,119,mac,mbc,{},4.0,-60.0,South America,,Macushi,2337,False,False
chulupi,,249,chu,cag,{},-23.5,-60.5,South America,,Chulupí,1300,False,False
mocovi,,543,mcv,moc,{},-28.0,-60.5,South America,,Mocoví,2677,False,False
kwaza,,223,kwz,,{},-12.5833333333,-60.6666666667,South America,,Kwaza,1249,False,False
aikana,,528,aik,tba,{},-12.6666666667,-60.6666666667,South America,,Aikaná,1290,False,False
abipon,,543,abi,axb,{},-29.0,-61.0,South America,,Abipón,2339,False,True
kanoe,,200,kno,,{},-13.25,-61.0,South America,,Kanoê,2666,False,False
mekens,,454,mek,skf,{},-12.5,-61.5,South America,,Mekens,1517,False,False
tapiete,,457,tpt,tpj,{},-19.75,-61.6666666667,South America,,Tapieté,460,False,False
warao,,486,wra,wba,{},9.33333333333,-61.6666666667,South America,,Warao,2474,True,True
pemon,,119,pem,aoc,{},5.33333333333,-62.0,South America,,Pemon,736,False,False
gaviao,,455,gav,gvo,{},-10.6666666667,-62.0,South America,,Gavião,1504,False,False
karoarara,,456,kaa,arr,{},-10.3333333333,-62.0,South America,,Karó (Arára),1759,False,False
piraha,,259,prh,myp,{},-7.0,-62.0,South America,,Pirahã,2490,True,True
jabuti,,194,jbt,jbt,{},-12.25,-62.25,South America,,Jabutí,1072,False,False
chorote,,249,crt,"crq, crt",{},-22.5,-62.5,South America,,Chorote,868,False,False
wichi,,249,wch,mzh,{},-22.5,-62.5833333333,South America,,Wichí,2469,True,True
shiriana,,498,shi,shb,{},3.5,-62.8333333333,South America,,Shiriana,2086,False,False
yanomami,,498,ynm,wca,{},2.33333333333,-63.0,South America,,Yanomámi,253,False,False
lenguadesenasargentina,,330,lsa,aed,{},-34.0,-63.0,South America,,Lengua de Señas Argentina,372,False,False
juma,,457,jum,jua,{},-7.5,-64.0,South America,,Júma,627,False,False
lule,,236,lul,,{},-28.0,-64.0,South America,,Lule,710,False,False
karitiana,,458,kna,ktn,{},-9.5,-64.0,South America,,Karitiâna,928,False,False
siriono,,457,srn,srq,{},-15.5833333333,-64.0,South America,,Sirionó,2210,False,False
paumari,,24,pau,pad,{},-6.0,-64.0,South America,,Paumarí,2439,False,True
baure,,535,baq,brg,{},-13.0833333333,-64.1666666667,South America,,Baure,1635,False,False
chiriguano,,457,crg,gui,{},-23.6666666667,-64.3333333333,South America,,Chiriguano,921,False,False
itonama,,193,ito,ito,{},-12.8333333333,-64.3333333333,South America,,Itonama,1895,False,False
sanuma,,498,snm,xsu,{},4.5,-64.6666666667,South America,,Sanuma,2455,True,True
karipunadoguapore,,342,kdg,kuq,{},-10.0,-65.0,South America,,Karipuna do Guapore,351,False,False
banawa,,24,bna,jaa,{},-7.0,-65.0,South America,,Banawá,644,False,False
caribdekwana,,119,cde,mch,{},5.5,-65.0,South America,,Carib (De'kwana),1636,False,False
wari,,121,war,pav,{},-11.3333333333,-65.0,South America,,Wari',2491,True,True
yuracare,,506,yrc,yuz,{},-16.5833333333,-65.25,South America,,Yuracare,259,False,False
ignaciano,,535,ign,ign,{},-15.1666666667,-65.4166666667,South America,,Ignaciano,1868,False,False
jarawara,,24,jwr,jaa,{},-7.5,-65.5,South America,,Jarawara,691,False,False
cayuvava,,120,cyv,cyb,{},-13.5,-65.5,South America,,Cayuvava,2389,False,True
movima,,258,mov,mzp,{},-13.8333333333,-65.6666666667,South America,,Movima,1558,False,False
quechuabolivian,,356,qbo,"quh, qul",{},-20.0,-66.0,South America,,Quechua (Bolivian),204,False,False
quechuacochabamba,,356,qco,quh,{},-17.5,-66.0,South America,,Quechua (Cochabamba),1419,False,False
panare,,119,pnr,pbh,{},6.5,-66.0,South America,,Panare,1524,False,False
eseejja,,403,ese,ese,{},-11.0,-66.0,South America,,Ese Ejja,1994,False,False
cavinena,,403,cav,cav,{},-13.3333333333,-66.5,South America,,Cavineña,1500,False,False
nadeb,,261,nad,mbj,{},-1.0,-66.5,South America,,Nadëb,1559,False,False
chacobo,,342,cbo,cao,{},-12.1666666667,-66.75,South America,,Chácobo,2123,False,False
baniwa,,553,bnw,bwi,{},2.66666666667,-66.8333333333,South America,,Baniwa,861,False,False
mapoyo,,119,mpy,mcg,{},6.0,-67.0,South America,,Mapoyo,388,False,False
deni,,24,den,dny,{},-6.0,-67.0,South America,,Dení,524,False,False
jamamadi,,24,jmm,jaa,{},-7.5,-67.0,South America,,Jamamadi,543,False,False
gununakune,,138,gku,pue,{},-41.0,-67.0,South America,,Gününa Küne,1595,False,False
piaroa,,358,pia,pid,{},5.0,-67.0,South America,,Piaroa,1618,False,False
bare,,549,bae,bae,{},1.0,-67.0,South America,,Baré,2145,False,False
apurina,,534,apu,apu,{},-9.0,-67.0,South America,,Apurinã,2472,True,True
daw,,261,daw,kwa,{},-0.25,-67.0833333333,South America,,Dâw,1301,False,False
maipure,,553,mpr,,{},5.5,-67.5,South America,,Maipure,1652,False,False
warekena,,549,wrk,gae,{},1.5,-67.5,South America,,Warekena,2142,False,False
araona,,403,ana,aro,{},-12.3333333333,-67.75,South America,,Araona,2388,False,True
moseten,,257,mos,cas,{},-14.75,-67.8333333333,South America,,Mosetén,2066,False,False
chipaya,,470,cpy,cap,{},-18.75,-67.8333333333,South America,,Chipaya,2667,False,False
leko,,230,lec,lec,{},-15.0,-67.9166666667,South America,,Leko,2663,False,False
puinave,,354,pui,pui,{},4.0,-68.0,South America,,Puinave,437,False,False
yaruro,,500,yrr,yae,{},7.0,-68.0,South America,,Yaruro,488,False,False
allentiac,,177,alc,,{},-31.0,-68.0,South America,,Allentiac,497,False,False
yahgan,,497,yah,yag,{},-55.0,-68.0,South America,,Yahgan,1434,False,False
tehuelche,,137,teh,teh,{},-48.0,-68.0,South America,,Tehuelche,1571,False,False
tacana,,403,tac,tna,{},-13.5,-68.0,South America,,Tacana,2241,False,False
canamari,,206,cnm,knm,{},-6.5,-68.5,South America,,Canamarí,294,False,False
curripaco,,549,cur,kpc,{},2.5,-68.5,South America,,Curripaco,311,False,False
puquina,,355,puq,,{},-16.5,-68.5,South America,,Puquina,832,False,False
atacameno,,219,atm,kuz,{},-23.0,-69.0,South America,,Atacameño,858,False,False
uru,,470,uru,ure,{},-16.75,-69.0,South America,,Uru,1011,False,False
guahibo,,164,ghb,guh,{},5.0,-69.0,South America,,Guahibo,1454,False,False
aymara central,,102,aym,"ayc, ayr",{},-17.0,-69.0,South America,,Aymara (Central),2392,False,True
tariana,,549,tar,tae,{},1.0,-69.1666666667,South America,,Tariana,2010,False,False
tucano,,452,tuc,tuo,{},0.5,-69.1666666667,South America,,Tucano,2089,False,False
hup,,261,hpd,jup,{},0.166666666667,-69.25,South America,,Hup,1721,False,False
piapoco,,549,ppc,pio,{},4.0,-69.5,South America,,Piapoco,430,False,False
piratapuyo,,452,prt,pir,{},0.333333333333,-69.5,South America,,Piratapuyo,431,False,False
guanano,,452,gno,gvc,{},0.833333333333,-69.5,South America,,Guanano,535,False,False
maku,,245,mkw,,{},0.416666666667,-69.8333333333,South America,,Máku,386,False,False
desano,,452,des,des,{},0.833333333333,-69.8333333333,South America,,Desano,1027,False,False
cuiba,,164,cui,cui,{},6.5,-70.0,South America,,Cuiba,1165,False,False
sharanahua,,342,shh,mcd,{},-11.0,-70.0,South America,,Sharanahua,1200,False,False
cacua,,114,cac,cbv,{},1.08333333333,-70.0,South America,,Cacua,1349,False,False
salibaincolombia,,357,sba,slc,{},6.0,-70.0,South America,,Sáliba (in Colombia),1662,False,False
selknam,,137,sel,ona,{},-53.0,-70.0,South America,,Selknam,2305,False,True
tuyuca,,452,tuy,tue,{},0.5,-70.0833333333,South America,,Tuyuca,1575,False,False
macuna,,452,mcn,myy,{},-0.333333333333,-70.1666666667,South America,,Macuna,384,False,False
siriano,,452,sri,sri,{},0.75,-70.1666666667,South America,,Siriano,448,False,False
waimaha,,452,bno,bao,{},0.333333333333,-70.25,South America,,Waimaha,1346,False,False
matis,,342,mts,mpq,{},-4.41666666667,-70.25,South America,,Matis,1555,False,False
yuruti,,452,yrt,yui,{},1.0,-70.4166666667,South America,,Yuruti,492,False,False
tatuyo,,452,tty,tav,{},0.416666666667,-70.5,South America,,Tatuyo,463,False,False
culina,,24,cul,cul,{},-6.0,-70.5,South America,,Culina,790,False,False
amarakaeri,,168,amk,amr,{},-12.5,-70.5,South America,,Amarakaeri,909,False,False
cuica,,418,cuc,,{},9.0,-70.5,South America,,Cuica,979,False,False
ticuna,,414,tic,tca,{},-4.0,-70.5,South America,,Ticuna,1966,False,False
cubeo,,452,cub,cub,{},1.33333333333,-70.5,South America,,Cubeo,2259,False,False
retuara,,452,ret,tnc,{},-0.5,-70.6666666667,South America,,Retuarã,2297,False,False
barasano,,452,brs,bsn,{},-0.166666666667,-70.6666666667,South America,,Barasano,2436,True,True
carapana,,452,crp,cbc,{},0.833333333333,-70.75,South America,,Carapana,1350,False,False
hianacoto,,119,hia,cbd,{},0.833333333333,-71.0,South America,,Hianacoto,101,False,False
playero,,164,pla,gob,{},7.0,-71.0,South America,,Playero,432,False,False
quechuacuzco,,356,qcu,quz,{},-14.5,-71.0,South America,,Quechua (Cuzco),1004,False,False
huitotomuinane,,180,hmu,hux,{},-2.41666666667,-71.0,South America,,Huitoto (Muinane),1117,False,False
yucuna,,549,ycn,ycn,{},-0.75,-71.0,South America,,Yucuna,1711,False,False
betoi,,109,bti,,{},7.16666666667,-71.25,South America,,Betoi,1021,False,False
macaguan,,164,mcg,mbn,{},6.5,-71.3333333333,South America,,Macaguán,383,False,False
nukak,,114,nuk,mbr,{},2.5,-71.5,South America,,Nukak,423,False,False
sikuani,,164,skn,guh,{},6.25,-71.5,South America,,Sikuani,1093,False,False
resigaro,,549,res,rgr,{},-2.41666666667,-71.5,South America,,Resígaro,2208,False,False
ocaina,,180,oca,oca,{},-2.75,-71.75,South America,,Ocaina,1659,False,False
cashinahua,,342,csh,cbs,{},-10.5,-71.8333333333,South America,,Cashinahua,1025,False,False
umaua,,119,umu,cbd,{},1.0,-72.0,South America,,Umaua,241,False,False
guayabero,,164,gyb,guo,{},2.83333333333,-72.0,South America,,Guayabero,323,False,False
andoke,,22,adk,ano,{},-0.666666666667,-72.0,South America,,Andoke,1887,False,False
goajiro,,550,goa,guc,{},12.0,-72.0,South America,,Goajiro,2205,False,False
yagua,,343,yag,yad,{},-3.5,-72.0,South America,,Yagua,2470,True,True
mapudungun,,25,map,arn,{},-38.0,-72.0,South America,,Mapudungun,2502,True,True
guaque,,119,guq,,{},1.0,-72.0833333333,South America,,Guaque,90,False,False
tunebo,,568,tnb,tnd,{},6.75,-72.25,South America,,Tunebo,960,False,False
achagua,,549,acg,aca,{},4.41666666667,-72.25,South America,,Achagua,1786,False,False
bora,,179,bor,boa,{},-2.16666666667,-72.3333333333,South America,,Bora,866,False,False
orejon,,452,ore,ore,{},-2.83333333333,-72.5,South America,,Orejón,577,False,False
muinane,,179,mui,bmr,{},-1.0,-72.5,South America,,Muinane,1842,False,False
amahuaca,,342,amc,amc,{},-10.5,-72.5,South America,,Amahuaca,2054,False,False
machiguenga,,536,mch,mcb,{},-12.0,-72.6666666667,South America,,Machiguenga,1188,False,False
yukpa,,119,ykp,yup,{},10.1666666667,-72.75,South America,,Yukpa,773,False,False
bari,,128,mti,mot,{},9.0,-73.0,South America,,Barí,405,False,False
carijona,,119,crj,cbd,{},1.0,-73.0,South America,,Carijona,663,False,False
japreria,,119,jpr,jru,{},10.5,-73.0,South America,,Japreria,1240,False,False
yaminahua,,342,yam,yaa,{},-8.0,-73.0,South America,,Yaminahua,1339,False,False
matses,,342,myr,mcf,{},-5.41666666667,-73.25,South America,,Matsés,1468,False,False
omagua,,457,oma,omg,{},-4.0,-73.5,South America,,Omagua,195,False,False
damana,,130,dam,mbp,{},11.0,-73.5,South America,,Damana,1351,False,False
huitotomurui,,180,hum,huu,{},-1.0,-73.5,South America,,Huitoto (Murui),2094,False,False
piro,,534,pir,pib,{},-11.0,-73.5,South America,,Piro,2676,False,False
ika,,130,ika,arh,{},10.6666666667,-73.75,South America,,Ika,2431,False,True
cogui,,130,cog,kog,{},11.0,-73.8333333333,South America,,Cogui,668,False,False
chimila,,129,cma,cbg,{},10.0,-74.0,South America,,Chimila,302,False,False
huitoto,,180,htt,hto,{},-1.0,-74.0,South America,,Huitoto,686,False,False
quechuaayacucho,,356,qay,quy,{},-14.0,-74.0,South America,,Quechua (Ayacucho),947,False,False
capanahua,,342,cap,kaq,{},-7.0,-74.0,South America,,Capanahua,1299,False,False
muisca,,567,msc,chb,{},5.0,-74.0,South America,,Muisca,1469,False,False
iquito,,509,iqu,iqu,{},-3.25,-74.0,South America,,Iquito,1894,False,False
huitotominica,,180,hmi,hto,{},-0.333333333333,-74.0,South America,,Huitoto (Minica),1996,False,True
campaaxininca,,536,cax,"cni, cpc",{},-12.0,-74.0,South America,,Campa (Axininca),2312,False,False
campapajonalasheninca,,536,cpa,cjo,{},-10.6666666667,-74.25,South America,,Campa Pajonal Asheninca,786,False,False
nomatsiguenga,,536,nom,not,{},-11.6666666667,-74.5,South America,,Nomatsiguenga,573,False,False
cocama,,457,coc,cod,{},-5.0,-74.5,South America,,Cocama,1926,False,False
qawasqar,,15,qaw,alc,{},-49.0,-75.0,South America,,Qawasqar,2254,False,True
shipibokonibo,,342,shk,shp,{},-7.5,-75.0,South America,,Shipibo-Konibo,2456,False,True
arabela,,509,arb,arl,{},-2.0,-75.1666666667,South America,,Arabela,1631,False,False
amuesha,,531,amu,ame,{},-10.5,-75.4166666667,South America,,Yanesha',1921,False,False
cashibo,,342,cas,cbr,{},-8.5,-75.5,South America,,Cashibo,1499,False,False
koreguaje,,452,kje,coe,{},1.0,-75.5,South America,,Koreguaje,1553,False,False
urarina,,469,urn,ura,{},-4.5,-75.5,South America,,Urarina,2672,False,False
taushiro,,410,tsr,trr,{},-3.25,-75.5,South America,,Taushiro,2673,False,False
quechuahuallaga,,356,qhu,qvh,{},-9.5,-75.5,South America,,Quechua (Huallaga),2675,False,False
quechuatarma,,356,qta,qvn,{},-11.4166666667,-75.75,South America,,Quechua (Tarma),585,False,False
emberachami,,135,emc,cmi,{},5.0,-76.0,South America,,Embera Chami,871,False,False
secoya,,452,sec,sey,{},-0.333333333333,-76.0,South America,,Secoya,950,False,False
paez,,341,pae,pbb,{},2.66666666667,-76.0,South America,,Páez,2264,False,False
jaqaru,,102,jaq,jqr,{},-13.0,-76.0,South America,,Jaqaru,2320,False,False
achuar,,197,acu,acu,{},-2.66667,-76.0,South America,,Achuar,2674,False,False
siona,,452,sin,snn,{},0.333333333333,-76.25,South America,,Siona,1944,False,False
catio,,135,cat,cto,{},7.16666666667,-76.3333333333,South America,,Catio,297,False,False
zaparo,,509,zpr,zro,{},-2.0,-76.3333333333,South America,,Zaparo,1098,False,False
jebero,,116,jeb,jeb,{},-5.41666666667,-76.5,South America,,Jebero,2153,False,False
waorani,,483,wao,auc,{},-1.0,-76.5,South America,,Waorani,2306,False,False
guambiano,,106,gmb,gum,{},2.5,-76.6666666667,South America,,Guambiano,1505,False,False
yurimangi,,507,yrm,,{},3.83333333333,-77.0,South America,,Yurimangí,260,False,False
inga,,356,iga,inb,{},1.0,-77.0,South America,,Inga,801,False,False
chayahuita,,116,chy,cbt,{},-5.5,-77.0,South America,,Chayahuita,1163,False,False
waunana,,135,wau,noa,{},4.0,-77.0,South America,,Waunana,1335,False,False
candoshi,,118,can,cbu,{},-4.16666666667,-77.0,South America,,Candoshi,1589,False,False
camsa,,117,cam,kbh,{},1.16666666667,-77.0,South America,,Camsá,1792,False,False
epenapedee,,135,epe,sja,{},3.0,-77.0,South America,,Epena Pedee,2457,False,True
cofan,,143,cof,con,{},0.166666666667,-77.1666666667,South America,,Cofán,1445,False,False
embera northern,,135,emb,emp,{},6.83333333333,-77.1666666667,South America,,Emberá (Northern),1953,False,False
kuna,,127,kun,kvn,{},8.0,-77.3333333333,South America,,Kuna,1647,False,False
quechuaancash,,356,qan,qxa,{},-8.5,-77.5,South America,,Quechua (Ancash),438,False,False
cholon,,136,cln,"cht, clh",{},-8.0,-77.5,South America,,Cholón,1066,False,False
huambisa,,197,hmb,hub,{},-4.0,-78.0,South America,,Huambisa,329,False,False
aguaruna,,197,agr,agr,{},-5.0,-78.0,South America,,Aguaruna,780,False,False
jivaro,,197,jiv,jiv,{},-2.5,-78.0,South America,,Jivaro,2095,False,False
quechuaimbabura,,356,qim,qvi,{},0.333333333333,-78.0,South America,,Quechua (Imbabura),2467,True,True
awapit,,106,awp,kwi,{},1.5,-78.25,South America,,Awa Pit,2476,False,True
quechuacajamarca,,356,qca,qvc,{},-7.0,-78.5,South America,,Quechua (Cajamarca),439,False,False
quechuaecuadorean,,356,qec,qug,{},-1.0,-79.0,South America,,Quechua (Ecuadorean),739,False,False
cayapa,,106,cay,cbi,{},0.666666666667,-79.0,South America,,Cayapa,2057,False,False
mochica,,132,mcc,,{},-7.5,-79.3333333333,South America,,Mochica,819,False,False
tsafiki,,106,tsf,cof,{},-1.0,-79.3333333333,South America,,Tsafiki,1851,False,False
esmeraldeno,,402,esm,,{},0.333333333333,-79.8333333333,South America,,Esmeraldeño,1069,False,False
